ID,Account Number,Account Name,Longitude,Latitude,Accessibility,Hours,Street Address,City,State,Zip Code,Languages,Current Account Balance
1,56c66be5a73e492741506f2c,Arlington 2,-77.1211338,38.8981779,True,"['24 hours a day, 7 days a week']",4700 Lee Highway,Arlington,VA,22207,"['Chinese', 'French', 'Spanish', 'Hindustani', 'English']",510406
2,56c66be5a73e492741506f2b,Arlington 1,-77.1211338,38.8981779,True,"['24 hours a day, 7 days a week']",4700 Lee Highway,Arlington,VA,22207,"['Spanish', 'Portuguese', 'English']",337830
3,56c66be5a73e492741506f2e,Lee Highway/North Arlington 3,-77.1333157,38.8960952,False,"['24 hours a day, 7 days a week']",5222 Lee Highway,Arlington,VA,22207,"['Hindustani', 'English']",13697
4,56c66be5a73e492741506f2d,Lee Highway/North Arlington 2,-77.1333157,38.8960952,True,"['24 hours a day, 7 days a week']",5222 Lee Highway,Arlington,VA,22207,"['Chinese', 'French', 'Spanish', 'Hindustani', 'Portuguese', 'English']",270091
5,56c66be5a73e492741506f2f,Lee Highway/North Arlington 4,-77.1333157,38.8960952,True,"['24 hours a day, 7 days a week']",5222 Lee Highway,Arlington,VA,22207,"['Portuguese', 'Korean', 'English']",801970
6,56c66be5a73e492741506f31,Ballston Commons Mall 1,-77.1102162,38.8788951,True,"['24 hours a day, 7 days a week']",4238 Wilson Boulevard,Arlington,VA,22203,['English'],13984
7,56c66be5a73e492741506f30,WMATA - Ballston 1,-77.1113105,38.882163,True,"['24 hours a day, 7 days a week']",4230 Fairfax Drive,Arlington,VA,22203,"['French', 'Korean', 'Portuguese', 'Hindustani', 'English']",561583
8,56c66be5a73e492741506f32,Ballston Commons Mall 2,-77.1102162,38.8788951,False,"['24 hours a day, 7 days a week']",4238 Wilson Boulevard,Arlington,VA,22203,"['French', 'English']",818133
9,56c66be5a73e492741506f33,Ballston Commons Mall 4,-77.1102162,38.8788951,False,"['24 hours a day, 7 days a week']",4238 Wilson Boulevard,Arlington,VA,22203,['English'],318232
10,56c66be5a73e492741506f34,Ballston Common Mall 1,-77.109526,38.879446,True,"['24 hours a day, 7 days a week']",4100 Wilson Boulevard,Arlington,VA,22203,['English'],864330
11,56c66be5a73e492741506f35,Ballston Common Mall 2,-77.109526,38.879446,False,"['24 hours a day, 7 days a week']",4100 Wilson Boulevard,Arlington,VA,22203,"['Korean', 'English']",428320
12,56c66be5a73e492741506f36,Kettler Capitals Iceplex 1,-77.10942059999999,38.8786679,True,"['24 hours a day, 7 days a week']",627 Glebe Road,Arlington,VA,22203,['English'],737905
13,56c66be5a73e492741506f37,Seven Corners 1,-77.1506881,38.8689155,True,"['24 hours a day, 7 days a week']",6367 Seven Corners Center,Falls Church,VA,22044,"['Portuguese', 'Hindustani', 'Spanish', 'Chinese', 'Korean', 'English']",50772
14,56c66be5a73e492741506f39,WMATA - Rosslyn 1,-77.071978,38.896854,False,"['24 hours a day, 7 days a week']",1850 North Moore Street,Arlington,VA,22209,"['Hindustani', 'Portuguese', 'Chinese', 'French', 'Spanish', 'English']",532878
15,56c66be5a73e492741506f3a,Rosslyn 1,-77.0702878,38.8947171,True,"['24 hours a day, 7 days a week']",1100 Wilson Boulevard,Arlington,VA,22209,"['Hindustani', 'English']",472085
16,56c66be5a73e492741506f3b,Rosslyn 2,-77.0702878,38.8947171,False,"['24 hours a day, 7 days a week']",1100 Wilson Boulevard,Arlington,VA,22209,"['Spanish', 'English']",504587
17,56c66be5a73e492741506f3c,Little Falls 1,-77.1192523,38.9500943,False,"['24 hours a day, 7 days a week']",4701 Sangamore Road,Bethesda,MD,20816,"['Portuguese', 'Chinese', 'French', 'Hindustani', 'Spanish', 'Korean', 'English']",804024
18,56c66be5a73e492741506f38,Seven Corners 2,-77.1506881,38.8689155,True,"['24 hours a day, 7 days a week']",6367 Seven Corners Center,Falls Church,VA,22044,"['Portuguese', 'French', 'Hindustani', 'Chinese', 'English']",493502
19,56c66be5a73e492741506f3d,Little Falls 2,-77.1192523,38.9500943,True,"['24 hours a day, 7 days a week']",4701 Sangamore Road,Bethesda,MD,20816,"['French', 'Korean', 'Portuguese', 'Spanish', 'English']",836150
20,56c66be5a73e492741506f3e,American University 2,-77.0871844,38.9392871,False,"['24 hours a day, 7 days a week']","4400 Massachusetts Avenue, NW",Washington,DC,20016,"['Spanish', 'Chinese', 'Hindustani', 'French', 'Portuguese', 'Korean', 'English']",759567
21,56c66be5a73e492741506f3f,American University Remote 1,-77.0871844,38.9392871,True,"['24 hours a day, 7 days a week']","4400 Massachusetts Avenue, NW",Washington,DC,20016,"['French', 'Hindustani', 'Korean', 'Chinese', 'Spanish', 'English']",901065
22,56c66be5a73e492741506f40,American University Remote 4,-77.0871844,38.9392871,True,"['24 hours a day, 7 days a week']","4400 Massachusetts Avenue, NW",Washington,DC,20016,"['French', 'Korean', 'Spanish', 'Hindustani', 'English']",145602
23,56c66be5a73e492741506f42,American University Remote 6,-77.0871844,38.9392871,False,"['24 hours a day, 7 days a week']","4400 Massachusetts Avenue, NW",Washington,DC,20016,"['Portuguese', 'English']",740654
24,56c66be5a73e492741506f41,American University Remote 5,-77.0871844,38.9392871,False,"['24 hours a day, 7 days a week']","4400 Massachusetts Avenue, NW",Washington,DC,20016,"['French', 'Korean', 'Chinese', 'Portuguese', 'Hindustani', 'Spanish', 'English']",883908
25,56c66be5a73e492741506f43,Spring Valley 1,-77.0961428,38.9449596,True,"['24 hours a day, 7 days a week']",4860 Massachusettes Avenue NW,Washington,DC,20016,['English'],4274
26,56c66be5a73e492741506f45,M Street 1,-77.0653548,38.905297,False,"['24 hours a day, 7 days a week']","3279 M Street, NW",Washington,DC,20007,"['Portuguese', 'Spanish', 'Chinese', 'Korean', 'English']",580862
27,56c66be5a73e492741506f44,Spring Valley 2,-77.0961428,38.9449596,True,"['24 hours a day, 7 days a week']",4860 Massachusettes Avenue NW,Washington,DC,20016,"['French', 'English']",846077
28,56c66be5a73e492741506f47,Georgetown 2,-77.0646324,38.9102227,True,"['24 hours a day, 7 days a week']",1545 Wisconsin Avenue NW,Washington,DC,20007,"['Korean', 'Spanish', 'Chinese', 'Hindustani', 'Portuguese', 'French', 'English']",643067
29,56c66be5a73e492741506f46,Georgetown 1,-77.0646324,38.9102227,False,"['24 hours a day, 7 days a week']",1545 Wisconsin Avenue NW,Washington,DC,20007,['English'],166339
30,56c66be5a73e492741506f48,Falls Church 1,-77.18639209999999,38.8923369,True,"['24 hours a day, 7 days a week']",1100 W Broad Street,Falls Church,VA,22046,"['Hindustani', 'English']",508011
31,56c66be5a73e492741506f49,Falls Church 2,-77.18639209999999,38.8923369,True,"['24 hours a day, 7 days a week']",1100 W Broad Street,Falls Church,VA,22046,"['Portuguese', 'French', 'Spanish', 'Hindustani', 'Chinese', 'English']",621569
32,56c66be5a73e492741506f4a,WMATA - West Falls Church 1,-77.1878309,38.8977328,False,"['24 hours a day, 7 days a week']",7040 Haycock Road,Falls Church,VA,22043,"['Korean', 'French', 'Portuguese', 'Chinese', 'Spanish', 'English']",486857
33,56c66be5a73e492741506f4c,McLean 2,-77.17829449999999,38.932887,False,"['24 hours a day, 7 days a week']",1439 Chain Bridge Road,McLean,VA,22101,"['Portuguese', 'Korean', 'Spanish', 'Chinese', 'French', 'English']",444425
34,56c66be5a73e492741506f4d,McLean 3,-77.17829449999999,38.932887,True,"['24 hours a day, 7 days a week']",1439 Chain Bridge Road,McLean,VA,22101,"['Korean', 'English']",701216
35,56c66be5a73e492741506f4b,McLean 1,-77.17829449999999,38.932887,True,"['24 hours a day, 7 days a week']",1439 Chain Bridge Road,McLean,VA,22101,['English'],273775
36,56c66be5a73e492741506f4e,Columbia Pike 2,-77.09358499999999,38.8605859,False,"['24 hours a day, 7 days a week']",3532 Columbia Pike,Arlington,VA,22204,"['Korean', 'French', 'Chinese', 'English']",342742
37,56c66be5a73e492741506f4f,Columbia Pike 3,-77.09358499999999,38.8605859,True,"['24 hours a day, 7 days a week']",3532 Columbia Pike,Arlington,VA,22204,"['French', 'Chinese', 'English']",562566
38,56c66be5a73e492741506f50,Columbia Pike 4,-77.09358499999999,38.8605859,False,"['24 hours a day, 7 days a week']",3532 Columbia Pike,Arlington,VA,22204,"['Portuguese', 'French', 'English']",857035
39,56c66be5a73e492741506f51,The Foundry Building,-77.0596966,38.90372,True,"['24 hours a day, 7 days a week']",1055 Thomas Jefferson Street NW,Washington,DC,20007,"['Spanish', 'French', 'Korean', 'Hindustani', 'English']",704939
40,56c66be5a73e492741506f52,Tenleytown 1,-77.0848741,38.9590565,False,"['24 hours a day, 7 days a week']",4000 Wisconsin Avenue,Washington,DC,20016,"['Chinese', 'Hindustani', 'English']",121452
41,56c66be5a73e492741506f53,Tenleytown 2,-77.0848741,38.9590565,False,"['24 hours a day, 7 days a week']",4000 Wisconsin Avenue,Washington,DC,20016,"['Korean', 'French', 'Hindustani', 'Spanish', 'English']",226488
42,56c66be5a73e492741506f54,Dolley Madison 1,-77.1823211,38.9380881,False,"['24 hours a day, 7 days a week']",6890 Elm Street,McLean,VA,22101,['English'],546950
43,56c66be5a73e492741506f56,Dolley Madison 3,-77.1823211,38.9380881,False,"['24 hours a day, 7 days a week']",6890 Elm Street,McLean,VA,22101,"['French', 'Spanish', 'Korean', 'Portuguese', 'Chinese', 'Hindustani', 'English']",596903
44,56c66be5a73e492741506f55,Dolley Madison 2,-77.1823211,38.9380881,False,"['24 hours a day, 7 days a week']",6890 Elm Street,McLean,VA,22101,"['Chinese', 'Korean', 'French', 'Hindustani', 'Spanish', 'English']",278569
45,56c66be5a73e492741506f57,Leesburg Pike Plaza 1,-77.1172646,38.8491288,True,"['24 hours a day, 7 days a week']",3499 S Jefferson Street,Bailey's Crossroads,VA,22041,"['Spanish', 'Portuguese', 'Hindustani', 'French', 'English']",605214
46,56c66be5a73e492741506f58,Leesburg Pike Plaza 2,-77.1172646,38.8491288,True,"['24 hours a day, 7 days a week']",3499 S Jefferson Street,Bailey's Crossroads,VA,22041,"['Hindustani', 'English']",422814
47,56c66be5a73e492741506f59,Leesburg Pike Plaza 3,-77.1172646,38.8491288,True,"['24 hours a day, 7 days a week']",3499 S Jefferson Street,Bailey's Crossroads,VA,22041,"['Spanish', 'Hindustani', 'English']",70907
48,56c66be5a73e492741506f5b,WMATA - Foggy Bottom 1,-77.04966999999999,38.9005805,True,"['24 hours a day, 7 days a week']","2301 I Street, NW",Washington,DC,20037,"['Chinese', 'Korean', 'Spanish', 'French', 'English']",474740
49,56c66be5a73e492741506f5c,Westbard #1,-77.1066261,38.96369560000001,False,"['24 hours a day, 7 days a week']",5370 Westbard Avenue,Bethesda,MD,20816,['English'],893316
50,56c66be5a73e492741506f5a,Shaw Pittman Building 1,-77.0507354,38.9070597,True,"['24 hours a day, 7 days a week']",2300 N Street NW,Washington,DC,20037,"['Korean', 'Hindustani', 'Chinese', 'Portuguese', 'English']",586731
51,56c66be5a73e492741506f5e,Cleveland Park 1,-77.0582046,38.93625110000001,True,"['24 hours a day, 7 days a week']",3519 Connecticut Avenue,Washington,DC,20008,"['Spanish', 'English']",979533
52,56c66be5a73e492741506f5d,Westbard #2,-77.1066261,38.96369560000001,False,"['24 hours a day, 7 days a week']",5370 Westbard Avenue,Bethesda,MD,20816,"['Spanish', 'Chinese', 'Korean', 'Portuguese', 'English']",626006
53,56c66be5a73e492741506f60,Idlywood Plaza 1,-77.20388249999999,38.9024769,True,"['24 hours a day, 7 days a week']",7501 Leesburg Pike,Falls Church,VA,22043,"['Portuguese', 'French', 'Spanish', 'Chinese', 'English']",791977
54,56c66be5a73e492741506f5f,Westbard Kiosk 1,-77.106949,38.9643486,True,"['24 hours a day, 7 days a week']",5420 Westbard Avenue,Bethesda,MD,20816,"['French', 'English']",789872
55,56c66be5a73e492741506f61,Idlywood Plaza 2,-77.20388249999999,38.9024769,True,"['24 hours a day, 7 days a week']",7501 Leesburg Pike,Falls Church,VA,22043,"['Hindustani', 'Chinese', 'French', 'Portuguese', 'Korean', 'Spanish', 'English']",9192
56,56c66be5a73e492741506f62,Mazza Gallerie 1,-77.0848741,38.9590565,False,"['24 hours a day, 7 days a week']",5300 Wisconsin Avenue,Washington,DC,20015,"['Hindustani', 'Korean', 'English']",409137
57,56c66be5a73e492741506f63,Dupont 1,-77.0457103,38.91374560000001,True,"['24 hours a day, 7 days a week']",1743 - 1749 Connecticut Avenue NW,Washington,DC,20009,"['Portuguese', 'Korean', 'English']",627307
58,56c66be5a73e492741506f65,2000 Pennsylvania Avenue 2,-77.0459826,38.90017479999999,False,"['24 hours a day, 7 days a week']",2000 Pennsylvania Avenue NW,Washington,DC,20006,"['Korean', 'English']",811978
59,56c66be5a73e492741506f66,WMATA - Dupont Circle 1,-77.0448991,38.9110364,False,"['24 hours a day, 7 days a week']","1525 20th Street, NW",Washington,DC,20036,"['Spanish', 'Chinese', 'Korean', 'English']",24082
60,56c66be5a73e492741506f67,WMATA - Friendship Heights 1,-77.0857097,38.96085850000001,True,"['24 hours a day, 7 days a week']","5337 Wisconsin Avenue, NW",Washington,DC,20015,"['Hindustani', 'Portuguese', 'French', 'Spanish', 'English']",224056
61,56c66be5a73e492741506f68,Wisconsin Place,-78.062917,34.7162747,True,"['Sun 12 PM - 7 PM', 'Mon 10 AM - 8 PM', 'Tue 10 AM - 8 PM', 'Wed 10 AM - 8 PM', 'Thu 10 AM - 8 PM', 'Fri 10 AM - 8 PM', 'Sat 12 PM - 7 PM']","4412 Willard Avenue, Suite # 1",Chevy Chase,MD,20815,"['French', 'Hindustani', 'Portuguese', 'Chinese', 'Korean', 'English']",483485
62,56c66be5a73e492741506f69,WMATA - Pentagon 1,-77.0558384,38.8708761,False,"['24 hours a day, 7 days a week']",2 South Rotary Road,Arlington,VA,22202,"['Spanish', 'French', 'English']",412302
63,56c66be5a73e492741506f6a,International Square Remote 1,-77.0430097,38.9019865,True,"['24 hours a day, 7 days a week']",1850 K Street NW,Washington,DC,20006,"['Portuguese', 'Chinese', 'Spanish', 'English']",645013
64,56c66be5a73e492741506f64,2000 Pennsylvania Avenue 1,-77.0459826,38.90017479999999,False,"['24 hours a day, 7 days a week']",2000 Pennsylvania Avenue NW,Washington,DC,20006,"['French', 'Korean', 'Portuguese', 'Spanish', 'Hindustani', 'English']",188581
65,56c66be5a73e492741506f6b,18th &amp; M 1,-77.04193819999999,38.9053571,False,"['24 hours a day, 7 days a week']","1800 M Street, NW",Washington,DC,20036,"['French', 'English']",517903
66,56c66be5a73e492741506f6c,18th &amp; M 2,-77.04193819999999,38.9053571,False,"['24 hours a day, 7 days a week']","1800 M Street, NW",Washington,DC,20036,"['Hindustani', 'French', 'Korean', 'Chinese', 'Spanish', 'English']",780761
67,56c66be5a73e492741506f6d,18th &amp; M 3,-77.04193819999999,38.9053571,True,"['24 hours a day, 7 days a week']","1800 M Street, NW",Washington,DC,20036,"['French', 'Chinese', 'Spanish', 'English']",175264
68,56c66be5a73e492741506f6e,Western Avenue 1,-77.0849195,38.9625208,False,"['24 hours a day, 7 days a week']",5459 Wisconsin Avenue,Chevy Chase,MD,20815,"['Spanish', 'English']",98204
69,56c66be5a73e492741506f6f,WMATA - Farragut West 1,-77.0419007,38.901438,True,"['24 hours a day, 7 days a week']","900 18th Streeet, NW",Washington,DC,20006,['English'],659161
70,56c66be5a73e492741506f70,Pentagon City Fashion Centre 1,-77.0601179,38.8639404,False,"['24 hours a day, 7 days a week']",1100 South Hayes Street,Arlington,VA,22202,['English'],871575
71,56c66be5a73e492741506f72,Pentagon City Fashion Centre 3,-77.0601179,38.8639404,False,"['24 hours a day, 7 days a week']",1100 South Hayes Street,Arlington,VA,22202,"['French', 'Spanish', 'Hindustani', 'English']",478199
72,56c66be5a73e492741506f73,Pentagon Centre Mall 1,-77.0587467,38.8614551,False,"['24 hours a day, 7 days a week']",1201 South Hayes Street,Arlington,VA,22202,"['Portuguese', 'Hindustani', 'French', 'Spanish', 'Chinese', 'Korean', 'English']",573311
73,56c66be5a73e492741506f74,Pentagon Centre Mall 2,-77.0587467,38.8614551,False,"['24 hours a day, 7 days a week']",1201 South Hayes Street,Arlington,VA,22202,"['Spanish', 'Chinese', 'Korean', 'French', 'English']",726508
74,56c66be5a73e492741506f71,Pentagon City Fashion Centre 2,-77.0601179,38.8639404,False,"['24 hours a day, 7 days a week']",1100 South Hayes Street,Arlington,VA,22202,"['Portuguese', 'French', 'Korean', 'Chinese', 'Hindustani', 'English']",843408
75,56c66be5a73e492741506f75,17th and K Street 1,-77.0399522,38.902173,False,"['24 hours a day, 7 days a week']","1700 K Street, NW",Washington,DC,20006,['English'],96709
76,56c66be5a73e492741506f77,WMATA - Pentagon City 1,-77.0601093,38.8630559,True,"['24 hours a day, 7 days a week']",1250 South Hayes Street,Arlington,VA,22202,"['Portuguese', 'English']",672149
77,56c66be5a73e492741506f78,Pennsylvania Avenue 1,-77.040381,38.89952,False,"['24 hours a day, 7 days a week']",1717 Pennsylvania Avenue NW,Washington,DC,20006,"['Korean', 'Chinese', 'English']",129288
78,56c66be5a73e492741506f76,17th and K Street 2,-77.0399522,38.902173,False,"['24 hours a day, 7 days a week']","1700 K Street, NW",Washington,DC,20006,"['Korean', 'Chinese', 'Portuguese', 'English']",126483
79,56c66be5a73e492741506f7a,Washington Square 1,-77.04083159999999,38.9033865,False,"['24 hours a day, 7 days a week']",1050 Connecticut Avenue NW,Washington,DC,20036,"['Chinese', 'Spanish', 'Portuguese', 'Hindustani', 'English']",280484
80,56c66be5a73e492741506f79,Pennsylvania Avenue 2,-77.040381,38.89952,False,"['24 hours a day, 7 days a week']",1717 Pennsylvania Avenue NW,Washington,DC,20006,"['Chinese', 'Hindustani', 'English']",213420
81,56c66be5a73e492741506f7c,17th &amp; L 1,-77.03852479999999,38.9037384,True,"['24 hours a day, 7 days a week']",1100 17th Street NW,Washington,DC,20036,"['Portuguese', 'English']",312097
82,56c66be5a73e492741506f7b,WMATA - Farragut North 1,-77.0390135,38.9029004,True,"['24 hours a day, 7 days a week']","1001 Connecticut Avenue, NW",Washington,DC,20036,"['Hindustani', 'Korean', 'Chinese', 'English']",559776
83,56c66be5a73e492741506f7d,17th &amp; L 2,-77.03852479999999,38.9037384,False,"['24 hours a day, 7 days a week']",1100 17th Street NW,Washington,DC,20036,"['Hindustani', 'Chinese', 'English']",662561
84,56c66be5a73e492741506f7e,Reagan National Airport South Pier Connector,-77.04248179999999,38.8523336,True,"['Mon 8 AM - 6 PM', 'Tue 8 AM - 6 PM', 'Wed 8 AM - 6 PM', 'Thu 8 AM - 6 PM', 'Fri 8 AM - 6 PM', 'Sat 8 AM - 4 PM']",2401 Smith Boulevard,Arlington,VA,22202,"['Korean', 'Chinese', 'French', 'Spanish', 'Hindustani', 'Portuguese', 'English']",571831
85,56c66be5a73e492741506f7f,Reagan National Airport Center Pier Connector,-77.04248179999999,38.8523336,False,"['Mon 8 AM - 6 PM', 'Tue 8 AM - 6 PM', 'Wed 8 AM - 6 PM', 'Thu 8 AM - 6 PM', 'Fri 8 AM - 6 PM', 'Sat 8 AM - 4 PM']",2401 Smith Boulevard,Arlington,VA,22202,"['Hindustani', 'Korean', 'French', 'Chinese', 'Spanish', 'English']",622175
86,56c66be5a73e492741506f81,McPherson Square 1,-77.033287,38.902006,False,"['24 hours a day, 7 days a week']",925 15th Street,Washington,DC,20005,"['Chinese', 'Portuguese', 'Hindustani', 'French', 'English']",877173
87,56c66be5a73e492741506f82,Chevy Chase Circle 1,-77.0767568,38.9663478,True,"['24 hours a day, 7 days a week']",5714 Connecticut Avenue NW,Washington,DC,20015,"['French', 'Hindustani', 'English']",534958
88,56c66be5a73e492741506f83,Chevy Chase Circle 2,-77.0767568,38.9663478,False,"['24 hours a day, 7 days a week']",5714 Connecticut Avenue NW,Washington,DC,20015,"['Portuguese', 'Spanish', 'French', 'English']",254808
89,56c66be5a73e492741506f84,Crystal Gateway 1,-77.05074499999999,38.8615918,True,"['24 hours a day, 7 days a week']",1235 South Clark Street,Arlington,VA,22202,['English'],898400
90,56c66be5a73e492741506f80,Reagan National Airport North Pier Connector,-77.04248179999999,38.8523336,True,"['Mon 8 AM - 6 PM', 'Tue 8 AM - 6 PM', 'Wed 8 AM - 6 PM', 'Thu 8 AM - 6 PM', 'Fri 8 AM - 6 PM', 'Sat 8 AM - 4 PM']",2401 Smith Boulevard,Arlington,VA,22202,"['Portuguese', 'Korean', 'French', 'Hindustani', 'English']",101387
91,56c66be5a73e492741506f85,WMATA - McPherson Square 1,-77.0322568,38.9010349,True,"['24 hours a day, 7 days a week']","1400 Eye Street, NW",Washington,DC,20005,"['Korean', 'French', 'English']",192085
92,56c66be5a73e492741506f86,Crowne Plaza @ Natl Airport 1,-77.05180760000002,38.8596001,False,"['24 hours a day, 7 days a week']",1489 Jefferson Davis Highway,Arlington,VA,22202,"['French', 'Hindustani', 'English']",303729
93,56c66be5a73e492741506f87,WMATA - Crystal City 1,-77.05187459999999,38.8572168,True,"['24 hours a day, 7 days a week']",1750 South Clark Street,Arlington,VA,22202,"['Korean', 'Portuguese', 'Hindustani', 'English']",277630
94,56c66be5a73e492741506f88,International Trade Center 1,-77.0302118,38.8949053,True,"['24 hours a day, 7 days a week']",1300 Pennsylvania Avenue NW,Washington,DC,20004,"['Hindustani', 'Chinese', 'Korean', 'Portuguese', 'English']",214220
95,56c66be5a73e492741506f89,International Trade Center 2,-77.0302118,38.8949053,False,"['24 hours a day, 7 days a week']",1300 Pennsylvania Avenue NW,Washington,DC,20004,['English'],151918
96,56c66be5a73e492741506f8a,International Trade Center 3,-77.0302118,38.8949053,False,"['24 hours a day, 7 days a week']",1300 Pennsylvania Avenue NW,Washington,DC,20004,['English'],537465
97,56c66be5a73e492741506f8b,International Trade Center 4,-77.0302118,38.8949053,False,"['24 hours a day, 7 days a week']",1300 Pennsylvania Avenue NW,Washington,DC,20004,"['Korean', 'Chinese', 'Spanish', 'Hindustani', 'English']",445583
98,56c66be5a73e492741506f8d,WMATA - Metro Center 2,-77.0296178,38.8974207,False,"['24 hours a day, 7 days a week']","607 13th Street, NW",Washington,DC,20005,['English'],965979
99,56c66be5a73e492741506f8c,WMATA - Metro Center 1,-77.0296178,38.8974207,False,"['24 hours a day, 7 days a week']","607 13th Street, NW",Washington,DC,20005,['English'],800910
100,56c66be5a73e492741506f8e,WMATA - Metro Center 3,-77.0296178,38.8974207,True,"['24 hours a day, 7 days a week']","607 13th Street, NW",Washington,DC,20005,"['Chinese', 'Portuguese', 'Spanish', 'Korean', 'French', 'English']",954897
101,56c66be5a73e492741506f90,Columbia Square 1,-77.0282675,38.897154,True,"['24 hours a day, 7 days a week']","1200 F Street, NW",Washington,DC,20004,"['Hindustani', 'French', 'English']",25302
102,56c66be5a73e492741506f8f,WMATA - Columbia Heights 1,-77.0329064,38.9284645,True,"['24 hours a day, 7 days a week']","3030 14th Street, NW",Washington,DC,20009,"['Chinese', 'Spanish', 'English']",908108
103,56c66be5a73e492741506f91,Columbia Square 2,-77.0282675,38.897154,False,"['24 hours a day, 7 days a week']","1200 F Street, NW",Washington,DC,20004,"['French', 'Portuguese', 'Hindustani', 'English']",861723
104,56c66be5a73e492741506f92,WMATA - Federal Triangle 1,-77.0279673,38.8936604,True,"['24 hours a day, 7 days a week']","302 12th Street, NW",Washington,DC,20004,"['French', 'Hindustani', 'Chinese', 'Spanish', 'English']",963181
105,56c66be5a73e492741506f93,Crystal City II 1,-77.0497192,38.8550463,True,"['24 hours a day, 7 days a week']",2100 F Crystal Drive,Arlington,VA,22202,"['French', 'Chinese', 'Spanish', 'Hindustani', 'Portuguese', 'English']",625047
106,56c66be5a73e492741506f95,WMATA - Smithsonian 1,-77.0287341,38.8875558,False,"['24 hours a day, 7 days a week']","1200 Independence Avenue, SW",Washington,DC,20004,"['Hindustani', 'Spanish', 'French', 'Korean', 'Chinese', 'English']",109033
107,56c66be5a73e492741506f96,Holiday Inn - National Airport 1,-77.05329499999999,38.849464,True,"['24 hours a day, 7 days a week']",2650 Jefferson Davis Highway,Arlington,VA,22202,"['Portuguese', 'Korean', 'Hindustani', 'French', 'Spanish', 'English']",198091
108,56c66be5a73e492741506f97,Tyson's International Drive 1,-77.2258877,38.9175184,True,"['24 hours a day, 7 days a week']",8110 Fletcher Street,McLean,VA,22102,"['Hindustani', 'French', 'Portuguese', 'Spanish', 'Chinese', 'Korean', 'English']",398146
109,56c66be5a73e492741506f94,Crystal City II 2,-77.0497192,38.8550463,True,"['24 hours a day, 7 days a week']",2100 F Crystal Drive,Arlington,VA,22202,"['Chinese', 'Portuguese', 'French', 'Spanish', 'Korean', 'Hindustani', 'English']",740919
110,56c66be5a73e492741506f98,Tyson's International Drive 2,-77.2258877,38.9175184,False,"['24 hours a day, 7 days a week']",8110 Fletcher Street,McLean,VA,22102,"['Hindustani', 'Spanish', 'Portuguese', 'French', 'Chinese', 'English']",736335
111,56c66be5a73e492741506f9a,Bradlee Center 1,-77.0920119,38.8298056,True,"['24 hours a day, 7 days a week']",3690-A King Street,Alexandria,VA,22302,['English'],940203
112,56c66be5a73e492741506f99,New York Avenue 1,-76.99549979999999,38.912025,False,"['24 hours a day, 7 days a week']",901 New York Avenue,Washington,DC,20001,"['Korean', 'Hindustani', 'Chinese', 'Portuguese', 'French', 'Spanish', 'English']",426563
113,56c66be5a73e492741506f9b,Bradlee Center 2,-77.0920119,38.8298056,True,"['24 hours a day, 7 days a week']",3690-A King Street,Alexandria,VA,22302,"['Korean', 'Spanish', 'Chinese', 'Hindustani', 'French', 'Portuguese', 'English']",122918
114,56c66be5a73e492741506f9d,Bethesda Avenue 2,-77.0935135,38.9808356,False,"['24 hours a day, 7 days a week']",4708 Bethesda Avenue,Bethesda,MD,20814,"['Korean', 'Portuguese', 'French', 'English']",311095
115,56c66be5a73e492741506f9c,Bethesda Avenue 1,-77.0935135,38.9808356,True,"['24 hours a day, 7 days a week']",4708 Bethesda Avenue,Bethesda,MD,20814,"['French', 'Korean', 'Hindustani', 'Portuguese', 'English']",299498
116,56c66be5a73e492741506f9f,Market Square 1,-77.0223723,38.8944693,False,"['24 hours a day, 7 days a week']","701 Pennsylvania Avenue, NW",Washington,DC,20004,"['Spanish', 'French', 'Korean', 'Portuguese', 'Hindustani', 'English']",487373
117,56c66be5a73e492741506fa0,Market Square 2,-77.0223723,38.8944693,True,"['24 hours a day, 7 days a week']","701 Pennsylvania Avenue, NW",Washington,DC,20004,"['Chinese', 'Korean', 'Portuguese', 'Hindustani', 'English']",852963
118,56c66be5a73e492741506f9e,Bethesda Avenue 3,-77.0935135,38.9808356,False,"['24 hours a day, 7 days a week']",4708 Bethesda Avenue,Bethesda,MD,20814,"['Korean', 'Chinese', 'Hindustani', 'English']",733648
119,56c66be5a73e492741506fa1,WMATA - Archives 1,-77.0223723,38.8944693,True,"['24 hours a day, 7 days a week']","701 Pennsylvania Avenue, NW",Washington,DC,20004,"['Spanish', 'Chinese', 'Hindustani', 'French', 'English']",110600
120,56c66be5a73e492741506fa2,WMATA - Gallery Place 1,-77.0207781,38.89981590000001,False,"['24 hours a day, 7 days a week']","630 H Street, NW",Washington,DC,20001,"['French', 'Portuguese', 'Korean', 'Spanish', 'Chinese', 'English']",131728
121,56c66be5a73e492741506fa4,MCI Center 1,-77.0216171,38.8983998,False,"['24 hours a day, 7 days a week']",601 F Street NW,Washington,DC,20004,"['French', 'Hindustani', 'English']",231142
122,56c66be5a73e492741506fa3,Holiday Inn - Crowne Plaza 1,-77.2273577,38.9205947,True,"['24 hours a day, 7 days a week']",1960 Chain Bridge Road,McLean,VA,22102,"['Hindustani', 'French', 'Spanish', 'Chinese', 'Portuguese', 'English']",872657
123,56c66be5a73e492741506fa5,MCI Center 2,-77.0216171,38.8983998,False,"['24 hours a day, 7 days a week']",601 F Street NW,Washington,DC,20004,"['Hindustani', 'English']",751555
124,56c66be5a73e492741506fa6,MCI Center 3,-77.0216171,38.8983998,False,"['24 hours a day, 7 days a week']",601 F Street NW,Washington,DC,20004,"['Korean', 'English']",485286
125,56c66be5a73e492741506fa7,MCI Center 4,-77.0216171,38.8983998,False,[''],601 F Street NW,Washington,DC,20004,"['French', 'Spanish', 'Chinese', 'Hindustani', 'English']",944170
126,56c66be5a73e492741506fa8,MCI Center 5,-77.0216171,38.8983998,False,"['24 hours a day, 7 days a week']",601 F Street NW,Washington,DC,20004,"['Portuguese', 'Chinese', 'French', 'Hindustani', 'Spanish', 'English']",529192
127,56c66be5a73e492741506fa9,Tysons Corner 1,-77.2272485,38.92231049999999,False,"['24 hours a day, 7 days a week']",8201 Greensboro Drive,McLean,VA,22102,"['French', 'Spanish', 'Chinese', 'Portuguese', 'Hindustani', 'English']",241997
128,56c66be5a73e492741506faa,WMATA - Bethesda 1,-77.09512099999999,38.984367,True,"['24 hours a day, 7 days a week']",7450 Wisconsin Avenue,Bethesda,MD,20814,['English'],127426
129,56c66be5a73e492741506fab,Mount Vernon Triangle/City Vista 1,-77.0187698,38.9034306,False,"['24 hours a day, 7 days a week']","1075 5th Street, NW",Washington,DC,20001,"['Spanish', 'Korean', 'French', 'Portuguese', 'Chinese', 'Hindustani', 'English']",739123
130,56c66be5a73e492741506fac,National Gallery of Art 1,-77.0208743,38.8920618,True,"['24 hours a day, 7 days a week']","600 Constitution Avenue, NW",Washington,DC,20004,"['Korean', 'Chinese', 'Spanish', 'English']",821198
131,56c66be5a73e492741506fae,Wisconsin Avenue 1,-77.093595,38.9854212,False,"['24 hours a day, 7 days a week']",7501 Wisconsin Avenue,Bethesda,MD,20814,"['Chinese', 'Korean', 'Portuguese', 'Hindustani', 'French', 'Spanish', 'English']",519175
132,56c66be5a73e492741506fad,WMATA Headquarters 1,-77.01942,38.897842,True,"['24 hours a day, 7 days a week']","600 5th Street, NW",Washington,DC,20001,"['Portuguese', 'Korean', 'Spanish', 'French', 'English']",70751
133,56c66be5a73e492741506faf,Wisconsin Avenue Headquarters 3,-77.093595,38.9854212,True,"['24 hours a day, 7 days a week']",7501 Wisconsin Avenue,Bethesda,MD,20814,"['Chinese', 'French', 'Spanish', 'Hindustani', 'English']",264799
134,56c66be5a73e492741506fb1,WMATA - Judiciary Square 1,-77.01759469999999,38.8969442,False,"['24 hours a day, 7 days a week']","450 F Street, NW",Washington,DC,20001,"['Chinese', 'Portuguese', 'Hindustani', 'English']",3918
135,56c66be5a73e492741506fb0,WMATA - L'Enfant Plaza 1,-77.02090199999999,38.885987,False,"['24 hours a day, 7 days a week']","600 Maryland Avenue, SW",Washington,DC,20024,"['Chinese', 'Spanish', 'English']",807536
136,56c66be5a73e492741506fb3,National Airport 11,-77.04248179999999,38.8523336,False,"['24 hours a day, 7 days a week']",2401 Smith Boulevard,Arlington,VA,22202,"['Korean', 'Spanish', 'Portuguese', 'English']",671484
137,56c66be5a73e492741506fb2,National Airport 10,-77.04248179999999,38.8523336,True,"['24 hours a day, 7 days a week']",2401 Smith Boulevard,Arlington,VA,22202,"['Korean', 'Portuguese', 'Chinese', 'Hindustani', 'French', 'English']",317123
138,56c66be5a73e492741506fb4,National Airport 12,-77.04248179999999,38.8523336,False,"['24 hours a day, 7 days a week']",2401 Smith Boulevard,Arlington,VA,22202,['English'],108268
139,56c66be5a73e492741506fb5,National Airport 13,-77.04248179999999,38.8523336,True,"['24 hours a day, 7 days a week']",2401 Smith Boulevard,Arlington,VA,22202,"['Korean', 'Chinese', 'Hindustani', 'Portuguese', 'English']",383700
140,56c66be5a73e492741506fb6,National Airport 3,-77.04248179999999,38.8523336,True,"['24 hours a day, 7 days a week']",2401 Smith Boulevard,Arlington,VA,22202,['English'],33364
141,56c66be5a73e492741506fb8,National Airport 7,-77.04248179999999,38.8523336,True,"['24 hours a day, 7 days a week']",2401 Smith Boulevard,Arlington,VA,22202,"['Spanish', 'French', 'Chinese', 'English']",33758
142,56c66be5a73e492741506fb7,National Airport 6,-77.04248179999999,38.8523336,True,"['24 hours a day, 7 days a week']",2401 Smith Boulevard,Arlington,VA,22202,"['Korean', 'English']",402217
143,56c66be5a73e492741506fb9,National Airport 8,-77.04248179999999,38.8523336,False,"['24 hours a day, 7 days a week']",2401 Smith Boulevard,Arlington,VA,22202,['English'],174158
144,56c66be5a73e492741506fba,National Airport 9,-77.04248179999999,38.8523336,True,"['24 hours a day, 7 days a week']",2401 Smith Boulevard,Arlington,VA,22202,"['French', 'Spanish', 'Chinese', 'Korean', 'Hindustani', 'English']",250837
145,56c66be5a73e492741506fbb,Reagan National Airport 1,-77.04248179999999,38.8523336,True,"['24 hours a day, 7 days a week']",2401 Smith Boulevard,Arlington,VA,22202,"['Portuguese', 'Hindustani', 'Spanish', 'French', 'Korean', 'English']",515534
146,56c66be5a73e492741506fbd,Potomac Yards 1,-77.0504626,38.8365716,False,"['24 hours a day, 7 days a week']",3671 Jefferson Davis Highway,Alexandria,VA,22305,"['Chinese', 'Korean', 'Hindustani', 'French', 'Portuguese', 'English']",222561
147,56c66be5a73e492741506fbc,Reagan National Airport 2,-77.04248179999999,38.8523336,True,"['24 hours a day, 7 days a week']",2401 Smith Boulevard,Arlington,VA,22202,"['Spanish', 'French', 'Chinese', 'English']",761503
148,56c66be5a73e492741506fbe,Cordell Avenue 1,-77.0969313,38.9909768,False,"['24 hours a day, 7 days a week']",4825 Cordell Avenue,Bethesda,MD,20814,"['French', 'Chinese', 'Spanish', 'English']",919838
149,56c66be5a73e492741506fbf,Cordell Avenue 2,-77.0969313,38.9909768,False,"['24 hours a day, 7 days a week']",4825 Cordell Avenue,Bethesda,MD,20814,"['Portuguese', 'French', 'Chinese', 'Hindustani', 'Spanish', 'Korean', 'English']",305882
150,56c66be5a73e492741506fc0,Cordell Avenue 3,-77.0969313,38.9909768,False,"['24 hours a day, 7 days a week']",4825 Cordell Avenue,Bethesda,MD,20814,"['Korean', 'Portuguese', 'Chinese', 'French', 'Spanish', 'English']",811127
151,56c66be5a73e492741506fc2,Fox Hill/Bethesda 1,-77.1536083,38.991694,False,"['24 hours a day, 7 days a week']",8300 Burdette Road,Bethesda,MD,20817,"['Chinese', 'Spanish', 'Portuguese', 'English']",17198
152,56c66be5a73e492741506fc1,"First &amp; H Street, NW",-77.0115173,38.9007143,False,"['24 hours a day, 7 days a week']",85 H Street NW,Washington,DC,20001,"['Spanish', 'Chinese', 'Portuguese', 'Korean', 'French', 'English']",651013
153,56c66be5a73e492741506fc3,Amtrak - Union Station 1,-77.0059863,38.8975061,False,"['24 hours a day, 7 days a week']",50 Massachusetts Avenue NW,Washington,DC,20002,"['Spanish', 'Portuguese', 'Chinese', 'Korean', 'French', 'Hindustani', 'English']",685097
154,56c66be5a73e492741506fc4,Amtrak - Union Station 2,-77.0059863,38.8975061,False,"['24 hours a day, 7 days a week']",50 Massachusetts Avenue NW,Washington,DC,20002,"['Spanish', 'English']",983202
155,56c66be5a73e492741506fc5,Children's Hospital Center 1,-77.0146728,38.9271809,True,"['24 hours a day, 7 days a week']","111 Michigan Avenue, NW",Washington,DC,20010,"['Korean', 'Hindustani', 'Portuguese', 'French', 'Chinese', 'Spanish', 'English']",435468
156,56c66be5a73e492741506fc7,Merrifield 2,-77.2301317,38.8664503,True,"['24 hours a day, 7 days a week']",3046 Gatehouse Plaza,Falls Church,VA,22042,"['Spanish', 'French', 'Hindustani', 'Chinese', 'English']",581804
157,56c66be5a73e492741506fc6,Merrifield 1,-77.2301317,38.8664503,False,"['24 hours a day, 7 days a week']",3046 Gatehouse Plaza,Falls Church,VA,22042,"['French', 'Chinese', 'Hindustani', 'English']",938907
158,56c66be5a73e492741506fc8,Annandale 1,-77.1889159,38.8297662,True,"['24 hours a day, 7 days a week']",7030 Little River Turnpike,Annandale,VA,22003,"['Spanish', 'Chinese', 'Portuguese', 'English']",538485
159,56c66be5a73e492741506fc9,Annandale 2,-77.1889159,38.8297662,False,"['24 hours a day, 7 days a week']",7030 Little River Turnpike,Annandale,VA,22003,"['Portuguese', 'French', 'English']",948157
160,56c66be5a73e492741506fca,WMATA - Union Station 1,-77.0068546,38.8981873,False,"['24 hours a day, 7 days a week']","701 1st Street, NE",Washington,DC,20002,"['Portuguese', 'French', 'Chinese', 'Hindustani', 'Spanish', 'Korean', 'English']",529111
161,56c66be5a73e492741506fcc,Chevy Chase Lake 1,-77.0763425,38.9943328,False,"['24 hours a day, 7 days a week']",8401 Connecticut Avenue,Chevy Chase,MD,20815,"['Korean', 'Chinese', 'French', 'Portuguese', 'Spanish', 'Hindustani', 'English']",111784
162,56c66be5a73e492741506fcb,WMATA - Capitol South 1,-77.0061551,38.88517179999999,False,"['24 hours a day, 7 days a week']","355 First Street, SE",Washington,DC,20003,"['French', 'Portuguese', 'English']",787919
163,56c66be5a73e492741506fcd,Watergate @ Landmark 1,-77.14197949999999,38.8090259,False,"['24 hours a day, 7 days a week']",211 Yoakum Parkway,Alexandria,VA,22304,"['Chinese', 'Spanish', 'Hindustani', 'English']",794876
164,56c66be5a73e492741506fce,Chevy Chase Supermarket 1,-77.0759868,38.9957941,False,"['Sun 9 AM - 5 PM', 'Mon 9 AM - 8 PM', 'Tue 9 AM - 8 PM', 'Wed 9 AM - 8 PM', 'Thu 9 AM - 8 PM', 'Fri 9 AM - 8 PM', 'Sat 9 AM - 7 PM']",8531 Connecticut Avenue,Chevy Chase,MD,20815,"['Portuguese', 'English']",12435
165,56c66be5a73e492741506fcf,Capitol Hill 1,-77.0008256,38.8868701,True,"['24 hours a day, 7 days a week']","336 Pennsylvania Avenue, SE",Washington,DC,20003,"['Korean', 'English']",553243
166,56c66be5a73e492741506fd1,Federal Gateway Plaza 2,-77.0040154,38.8770883,True,"['24 hours a day, 7 days a week']","1100 New Jersey Avenue, SE",Washington,DC,20003,"['Portuguese', 'French', 'English']",628375
167,56c66be5a73e492741506fd0,Federal Gateway Plaza 1,-77.0040154,38.8770883,False,"['24 hours a day, 7 days a week']","1100 New Jersey Avenue, SE",Washington,DC,20003,['English'],822653
168,56c66be5a73e492741506fd2,WMATA - Eastern Market 1,-76.995835,38.884243,False,"['24 hours a day, 7 days a week']","701 Pennsylvania Avenue, SE",Washington,DC,20003,"['Spanish', 'English']",618588
169,56c66be5a73e492741506fd3,Bradlick Shopping Center 1,-77.1847098,38.7797446,False,"['24 hours a day, 7 days a week']",7000 Bradlick Shopping Center,Annandale,VA,22003,"['Chinese', 'Portuguese', 'English']",10459
170,56c66be5a73e492741506fd4,Bradlick Shopping Center 2,-77.1847098,38.7797446,True,"['24 hours a day, 7 days a week']",7000 Bradlick Shopping Center,Annandale,VA,22003,"['French', 'Portuguese', 'Korean', 'Hindustani', 'Spanish', 'Chinese', 'English']",49226
171,56c66be5a73e492741506fd6,Barrack's Row 2,-76.99524079999999,38.8835778,False,"['24 hours a day, 7 days a week']",401 8th Street SE,Washington,DC,20003,['English'],15771
172,56c66be5a73e492741506fd5,Barrack's Row 1,-76.99524079999999,38.8835778,False,"['24 hours a day, 7 days a week']",401 8th Street SE,Washington,DC,20003,"['Korean', 'Spanish', 'Portuguese', 'Hindustani', 'French', 'Chinese', 'English']",852877
173,56c66be5a73e492741506fd7,WMATA - King Street 1,-77.06150679999999,38.8061673,True,"['24 hours a day, 7 days a week']",1900 King Street,Alexandria,VA,22301,['English'],699787
174,56c66be5a73e492741506fd8,Vienna 1,-77.26190199999999,38.904818,False,"['24 hours a day, 7 days a week']",246 Maple Avenue,Vienna,VA,22180,['English'],85239
175,56c66be5a73e492741506fd9,Vienna 2,-77.26190199999999,38.904818,True,"['24 hours a day, 7 days a week']",246 Maple Avenue,Vienna,VA,22180,"['Hindustani', 'Korean', 'French', 'Spanish', 'Portuguese', 'English']",146578
176,56c66be5a73e492741506fda,WMATA - Fort Totten 1,-76.999462,38.952534,False,"['24 hours a day, 7 days a week']","550 Galloway Street, NE",Washington,DC,20011,['English'],784824
177,56c66be5a73e492741506fdb,Carlyle Place 1,-77.064458,38.804034,True,"['24 hours a day, 7 days a week']",2051 Jamieson Avenue,Alexandria,VA,22314,"['Portuguese', 'Hindustani', 'Spanish', 'Chinese', 'Korean', 'English']",44946
178,56c66be5a73e492741506fdc,WMATA - Vienna 1,-77.264893,38.874981,False,"['24 hours a day, 7 days a week']",2900 Nutley Street,Fairfax,VA,22031,"['French', 'Chinese', 'Portuguese', 'Hindustani', 'Spanish', 'Korean', 'English']",223602
179,56c66be5a73e492741506fdd,Montgomery College-Takoma Park 1,-77.0211983,38.9834649,True,"['24 hours a day, 7 days a week']",7600 Takoma Avenue,Takoma Park,MD,20912,['English'],592649
180,56c66be5a73e492741506fde,WMATA - Huntington 1,-77.07440849999999,38.7946065,True,"['24 hours a day, 7 days a week']",2701 Huntington Avenue,Alexandria,VA,22303,"['Spanish', 'Korean', 'Chinese', 'English']",997579
181,56c66be5a73e492741506fdf,Pan Am 1,-77.2623614,38.8703504,True,"['24 hours a day, 7 days a week']",3095 Nutley Street,Fairfax,VA,22031,"['Korean', 'Hindustani', 'English']",584757
182,56c66be5a73e492741506fe0,Pan Am 2,-77.2623614,38.8703504,False,"['24 hours a day, 7 days a week']",3095 Nutley Street,Fairfax,VA,22031,"['Hindustani', 'English']",157257
183,56c66be5a73e492741506fe1,Riggs Road 1,-76.9642504,38.9358531,True,"['24 hours a day, 7 days a week']",5823 Eastern Avenue,Chillum,MD,20782,"['French', 'Chinese', 'Korean', 'Spanish', 'Hindustani', 'Portuguese', 'English']",605647
184,56c66be5a73e492741506fe2,Riggs Road 2,-76.9642504,38.9358531,False,"['24 hours a day, 7 days a week']",5823 Eastern Avenue,Chillum,MD,20782,"['Korean', 'Portuguese', 'French', 'Hindustani', 'Spanish', 'English']",477273
185,56c66be5a73e492741506fe3,WMATA - Silver Spring 1,-77.0322949,38.9936282,False,"['24 hours a day, 7 days a week']",8400 Colesville Road,Silver Spring,MD,20910,"['Hindustani', 'Chinese', 'Spanish', 'Portuguese', 'English']",226144
186,56c66be5a73e492741506fe5,Silver Spring 1,-77.0263252,38.9932522,False,"['24 hours a day, 7 days a week']",8315 Georgia Avenue,Silver Spring,MD,20910,"['Chinese', 'Portuguese', 'Spanish', 'English']",390373
187,56c66be5a73e492741506fe4,The Grays on Pennsylvania 1,-76.9724318,38.8740115,False,"['24 hours a day, 7 days a week']","2323 Pennsylvania Avenue, SE",Washington,DC,20003,['English'],251827
188,56c66be5a73e492741506fe6,Silver Spring 2,-77.0263252,38.9932522,True,"['24 hours a day, 7 days a week']",8315 Georgia Avenue,Silver Spring,MD,20910,"['Portuguese', 'Chinese', 'Spanish', 'French', 'Hindustani', 'English']",322865
189,56c66be5a73e492741506fe7,Silver Spring 3,-77.0263252,38.9932522,False,"['24 hours a day, 7 days a week']",8315 Georgia Avenue,Silver Spring,MD,20910,"['Chinese', 'French', 'Korean', 'Portuguese', 'Hindustani', 'English']",716507
190,56c66be5a73e492741506fe8,Silver Spring 4,-77.0263252,38.9932522,False,"['24 hours a day, 7 days a week']",8315 Georgia Avenue,Silver Spring,MD,20910,"['Korean', 'Portuguese', 'English']",834516
191,56c66be5a73e492741506fea,8676 Georgia Avenue 1,-77.02986279999999,38.9971571,False,"['24 hours a day, 7 days a week']",8676 Georgia Avenue,Silver Spring,MD,20910,"['Chinese', 'Portuguese', 'English']",267694
192,56c66be5a73e492741506fe9,Suburban Hospital Center 1,-77.1331784,39.0245951,False,"['24 hours a day, 7 days a week']",6420 Rockledge Drive,Bethesda,MD,20817,['English'],456193
193,56c66be5a73e492741506feb,8676 Georgia Avenue 2,-77.02986279999999,38.9971571,False,"['24 hours a day, 7 days a week']",8676 Georgia Avenue,Silver Spring,MD,20910,"['Korean', 'English']",920631
194,56c66be5a73e492741506fec,8676 Georgia Avenue 3,-77.02986279999999,38.9971571,False,"['24 hours a day, 7 days a week']",8676 Georgia Avenue,Silver Spring,MD,20910,"['Korean', 'Portuguese', 'Hindustani', 'Chinese', 'English']",485652
195,56c66be5a73e492741506fed,Fair City Mall 1,-77.2722943,38.8442577,False,"['24 hours a day, 7 days a week']",3941 Pickett Road,Fairfax,VA,22031,"['French', 'Hindustani', 'Chinese', 'Portuguese', 'English']",548711
196,56c66be5a73e492741506fee,Fair City Mall 2,-77.2722943,38.8442577,True,"['24 hours a day, 7 days a week']",3941 Pickett Road,Fairfax,VA,22031,['English'],564977
197,56c66be5a73e492741506fef,Montgomery Mall 7,-77.1459998,39.0241378,True,"['Sun 11 AM - 7 PM', 'Mon 10 AM - 9:30 PM', 'Tue 10 AM - 9:30 PM', 'Wed 10 AM - 9:30 PM', 'Thu 10 AM - 9:30 PM', 'Fri 10 AM - 9:30 PM', 'Sat 10 AM - 9:30 PM']",7101 Democracy Boulevard,Bethesda,MD,20817,"['Chinese', 'Korean', 'Hindustani', 'English']",134482
198,56c66be5a73e492741506ff0,118 King Street 1,-77.0411161,38.8041116,True,"['24 hours a day, 7 days a week']",118 King Street,Alexandria,VA,22314,['English'],123809
199,56c66be5a73e492741506ff1,Georgetown Square 1,-77.12731459999999,39.0252174,True,"['24 hours a day, 7 days a week']",10400 Old Georgetown Road,Bethesda,MD,20814,"['French', 'Hindustani', 'Chinese', 'Portuguese', 'English']",377169
200,56c66be5a73e492741506ff2,Old Towne 1,-77.047769,38.8000264,False,"['24 hours a day, 7 days a week']",500 South Washington Street,Alexandria,VA,22314,"['Spanish', 'Chinese', 'Korean', 'Portuguese', 'French', 'English']",498196
201,56c66be5a73e492741506ff4,Franconia 1,-77.134322,38.7840091,True,"['24 hours a day, 7 days a week']",5515 Franconia Road,Alexandria,VA,22310,"['Spanish', 'French', 'Portuguese', 'English']",812697
202,56c66be5a73e492741506ff3,Old Towne 2,-77.047769,38.8000264,True,"['24 hours a day, 7 days a week']",500 South Washington Street,Alexandria,VA,22314,"['Korean', 'Spanish', 'Hindustani', 'Portuguese', 'French', 'Chinese', 'English']",458320
203,56c66be5a73e492741506ff5,Franconia 2,-77.134322,38.7840091,False,"['24 hours a day, 7 days a week']",5515 Franconia Road,Alexandria,VA,22310,"['Chinese', 'Portuguese', 'French', 'English']",604139
204,56c66be5a73e492741506ff6,Strathmore Music Center 1,-77.10287129999999,39.0317221,False,"['24 hours a day, 7 days a week']",5301 Tuckerman Lane,Rockville,MD,20852,"['Hindustani', 'Portuguese', 'Spanish', 'Korean', 'English']",648556
205,56c66be5a73e492741506ff7,Magruder House 1,-77.14787419999999,39.0269899,True,"['24 hours a day, 7 days a week']",7340 Westlake Terrace,Bethesda,MD,20817,['English'],851340
206,56c66be5a73e492741506ff9,Potomac 1,-77.20920389999999,39.0184222,True,"['24 hours a day, 7 days a week']",10211 River Road,Potomac,MD,20854,"['Hindustani', 'French', 'Spanish', 'English']",522287
207,56c66be5a73e492741506ff8,Magruder House 2,-77.14787419999999,39.0269899,False,"['24 hours a day, 7 days a week']",7340 Westlake Terrace,Bethesda,MD,20817,"['Korean', 'Spanish', 'Portuguese', 'French', 'Chinese', 'Hindustani', 'English']",704411
208,56c66be5a73e492741506ffa,Potomac 2,-77.20920389999999,39.0184222,True,"['24 hours a day, 7 days a week']",10211 River Road,Potomac,MD,20854,"['Korean', 'Portuguese', 'Hindustani', 'Chinese', 'French', 'English']",796747
209,56c66be5a73e492741506ffb,Potomac 3,-77.20920389999999,39.0184222,False,"['24 hours a day, 7 days a week']",10211 River Road,Potomac,MD,20854,"['Chinese', 'English']",589821
210,56c66be5a73e492741506ffc,Commerce Street 1,-77.1859315,38.7818524,True,"['24 hours a day, 7 days a week']",6949 Commerce Street,Springfield,VA,22150,"['Korean', 'Chinese', 'French', 'English']",67043
211,56c66be5a73e492741506ffe,Commerce Street 3,-77.1859315,38.7818524,True,"['24 hours a day, 7 days a week']",6949 Commerce Street,Springfield,VA,22150,"['Portuguese', 'Chinese', 'French', 'Korean', 'Spanish', 'Hindustani', 'English']",699127
212,56c66be5a73e492741506ffd,Commerce Street 2,-77.1859315,38.7818524,True,"['24 hours a day, 7 days a week']",6949 Commerce Street,Springfield,VA,22150,"['Korean', 'Hindustani', 'Spanish', 'Portuguese', 'English']",238007
213,56c66be5a73e492741507000,Kensington 2,-77.07471699999999,39.031229,True,"['24 hours a day, 7 days a week']",10707 Connecticut Avenue,Kensington,MD,20895,"['Portuguese', 'French', 'Spanish', 'Chinese', 'English']",519596
214,56c66be5a73e492741506fff,Kensington 1,-77.07471699999999,39.031229,True,"['24 hours a day, 7 days a week']",10707 Connecticut Avenue,Kensington,MD,20895,['English'],569280
215,56c66be5a73e492741507001,Kensington 3,-77.07471699999999,39.031229,False,"['24 hours a day, 7 days a week']",10707 Connecticut Avenue,Kensington,MD,20895,"['Portuguese', 'Korean', 'English']",515005
216,56c66be5a73e492741507003,Anacostia 2,-76.96759320000001,38.8585879,True,"['24 hours a day, 7 days a week']",2831 Alabama Avenue SE,Washington,DC,20020,"['Spanish', 'Chinese', 'Hindustani', 'Portuguese', 'English']",102183
217,56c66be5a73e492741507002,Anacostia 1,-76.96759320000001,38.8585879,False,"['24 hours a day, 7 days a week']",2831 Alabama Avenue SE,Washington,DC,20020,"['Korean', 'Portuguese', 'Spanish', 'English']",552204
218,56c66be5a73e492741507004,Arliss 1,-77.00186479999999,38.9996868,True,"['24 hours a day, 7 days a week']",8740 Arliss Street,Silver Spring,MD,20901,"['Spanish', 'Korean', 'Chinese', 'French', 'English']",907561
219,56c66be5a73e492741507005,Arliss 2,-77.00186479999999,38.9996868,False,"['24 hours a day, 7 days a week']",8740 Arliss Street,Silver Spring,MD,20901,"['Portuguese', 'French', 'English']",318201
220,56c66be5a73e492741507006,Hampshire Langley 1,-76.98858179999999,38.9884198,False,"['24 hours a day, 7 days a week']",1181 University Boulevard,Langley Park,MD,20783,['English'],468643
221,56c66be5a73e492741507008,Hampshire Langley 3,-76.98858179999999,38.9884198,True,"['24 hours a day, 7 days a week']",1181 University Boulevard,Langley Park,MD,20783,"['Korean', 'Hindustani', 'Chinese', 'Spanish', 'Portuguese', 'French', 'English']",750543
222,56c66be5a73e492741507009,Cabin John 1,-77.1569827,39.041066,False,"['24 hours a day, 7 days a week']",7941 Tuckerman Lane,Potomac,MD,20854,"['Hindustani', 'Chinese', 'French', 'Korean', 'Portuguese', 'Spanish', 'English']",147862
223,56c66be5a73e492741507007,Hampshire Langley 2,-76.98858179999999,38.9884198,True,"['24 hours a day, 7 days a week']",1181 University Boulevard,Langley Park,MD,20783,"['French', 'Portuguese', 'Chinese', 'Korean', 'Spanish', 'English']",854432
224,56c66be5a73e49274150700a,Cabin John 2,-77.1569827,39.041066,True,"['24 hours a day, 7 days a week']",7941 Tuckerman Lane,Potomac,MD,20854,"['Chinese', 'English']",17703
225,56c66be5a73e49274150700b,Chain Bridge Road/Oakton 1,-77.3005261,38.8816527,True,"['24 hours a day, 7 days a week']",2938 Chain Bridge Road,Oakton,VA,22124,"['Portuguese', 'Chinese', 'Korean', 'Spanish', 'Hindustani', 'English']",890789
226,56c66be5a73e49274150700d,Beacon Mall 1,-77.0822216,38.7699643,True,"['24 hours a day, 7 days a week']",6790 Richmond Highway,Alexandria,VA,22306,"['Chinese', 'Portuguese', 'Spanish', 'Korean', 'French', 'English']",589016
227,56c66be5a73e49274150700c,Chain Bridge Road/Oakton 2,-77.3005261,38.8816527,False,"['24 hours a day, 7 days a week']",2938 Chain Bridge Road,Oakton,VA,22124,['English'],555536
228,56c66be5a73e49274150700f,Beacon Mall 3,-77.0822216,38.7699643,False,"['24 hours a day, 7 days a week']",6790 Richmond Highway,Alexandria,VA,22306,['English'],596655
229,56c66be5a73e49274150700e,Beacon Mall 2,-77.0822216,38.7699643,True,"['24 hours a day, 7 days a week']",6790 Richmond Highway,Alexandria,VA,22306,"['Chinese', 'English']",21442
230,56c66be5a73e492741507010,WMATA - Franconia 1,-77.1684341,38.7663057,True,"['24 hours a day, 7 days a week']",6880 Frontier Drive,Springfield,VA,22150,"['Chinese', 'French', 'Hindustani', 'Spanish', 'English']",111993
231,56c66be5a73e492741507012,Nicholson Lane 2,-77.1039959,39.0466173,False,"['24 hours a day, 7 days a week']",5041 Nicholson Lane,Rockville,MD,20852,"['French', 'Spanish', 'Portuguese', 'Chinese', 'English']",878954
232,56c66be5a73e492741507011,Nicholson Lane 1,-77.1039959,39.0466173,False,"['24 hours a day, 7 days a week']",5041 Nicholson Lane,Rockville,MD,20852,"['Korean', 'French', 'English']",881148
233,56c66be5a73e492741507013,Prince George's Plaza 1,-76.9574736,38.9678572,True,"['24 hours a day, 7 days a week']",3500 East West Highway,Hyattsville,MD,20782,"['Hindustani', 'English']",476074
234,56c66be5a73e492741507014,Prince George's Plaza 2,-76.9574736,38.9678572,False,"['24 hours a day, 7 days a week']",3500 East West Highway,Hyattsville,MD,20782,"['Korean', 'Hindustani', 'Spanish', 'French', 'Chinese', 'Portuguese', 'English']",726898
235,56c66be5a73e492741507015,Prince George's Plaza 3,-76.9574736,38.9678572,True,"['24 hours a day, 7 days a week']",3500 East West Highway,Hyattsville,MD,20782,['English'],759718
236,56c66be5a73e492741507017,Old Georgetown 2,-77.11770500000002,39.048323,False,"['24 hours a day, 7 days a week']",11575 Old Georgetown Road,Rockville,MD,20852,"['Chinese', 'Spanish', 'English']",263270
237,56c66be5a73e492741507018,Old Georgetown 3,-77.11770500000002,39.048323,True,"['24 hours a day, 7 days a week']",11575 Old Georgetown Road,Rockville,MD,20852,"['Portuguese', 'Hindustani', 'French', 'English']",837814
238,56c66be5a73e492741507016,Old Georgetown 1,-77.11770500000002,39.048323,False,"['24 hours a day, 7 days a week']",11575 Old Georgetown Road,Rockville,MD,20852,"['Spanish', 'English']",195455
239,56c66be5a73e492741507019,Four Corners 1,-77.014313,39.0216274,True,"['24 hours a day, 7 days a week']",115 University Boulevard W,Silver Spring,MD,20901,"['Spanish', 'Portuguese', 'Chinese', 'Hindustani', 'Korean', 'French', 'English']",954910
240,56c66be5a73e49274150701a,Four Corners 2,-77.014313,39.0216274,True,"['24 hours a day, 7 days a week']",115 University Boulevard W,Silver Spring,MD,20901,"['French', 'Korean', 'Portuguese', 'Hindustani', 'Spanish', 'Chinese', 'English']",440474
241,56c66be5a73e49274150701c,Georgia Avenue 1,-77.05095759999999,39.0399013,True,"['24 hours a day, 7 days a week']",11241 Georgia Avenue,Wheaton,MD,20902,"['French', 'Portuguese', 'English']",409791
242,56c66be5a73e49274150701b,Wheaton Plaza 2,-77.0519966,39.0353262,True,"['Sun 11 AM - 7 PM', 'Mon 10 AM - 9:30 PM', 'Tue 10 AM - 9:30 PM', 'Wed 10 AM - 9:30 PM', 'Thu 10 AM - 9:30 PM', 'Fri 10 AM - 9:30 PM', 'Sat 10 AM - 9:30 PM']",11160 Viers Mill Road,Silver Spring,MD,20902,"['Korean', 'Spanish', 'English']",309627
243,56c66be5a73e49274150701d,Georgia Avenue 2,-77.05095759999999,39.0399013,False,"['24 hours a day, 7 days a week']",11241 Georgia Avenue,Wheaton,MD,20902,"['Portuguese', 'Chinese', 'English']",778989
244,56c66be5a73e49274150701e,Georgia Avenue 3,-77.05095759999999,39.0399013,True,"['24 hours a day, 7 days a week']",11241 Georgia Avenue,Wheaton,MD,20902,"['Portuguese', 'Spanish', 'French', 'Hindustani', 'Korean', 'English']",33597
245,56c66be5a73e49274150701f,Prince George's Plaza,-76.950817,38.965015,False,"['Mon 9 AM - 6 PM', 'Tue 9 AM - 6 PM', 'Wed 9 AM - 6 PM', 'Thu 9 AM - 6 PM', 'Fri 9 AM - 6 PM', 'Sat 9 AM - 1 PM']",6400 Belcrest Road,Hyattsville,MD,20782,"['French', 'English']",712292
246,56c66be5a73e492741507020,Prince George'a Plaza 2,-76.950817,38.965015,True,"['24 hours a day, 7 days a week']",6400 Belcrest Road,Hyattsville,MD,20782,"['Korean', 'English']",460788
247,56c66be5a73e492741507021,Prince George's Plaza 1,-76.950817,38.965015,False,"['24 hours a day, 7 days a week']",6400 Belcrest Road,Hyattsville,MD,20782,"['Portuguese', 'English']",925980
248,56c66be5a73e492741507022,Prince George's Plaza 3,-76.950817,38.965015,False,"['24 hours a day, 7 days a week']",6400 Belcrest Road,Hyattsville,MD,20782,"['Portuguese', 'Hindustani', 'Chinese', 'Korean', 'Spanish', 'English']",603002
249,56c66be5a73e492741507023,National Harbor 1,-77.01619459999999,38.7848765,True,"['24 hours a day, 7 days a week']",150 Waterfront Street,National Harbor,MD,20745,"['Chinese', 'English']",786568
250,56c66be5a73e492741507024,Oxon Hill 1,-76.9830446,38.8041663,True,"['24 hours a day, 7 days a week']",6197 Oxon Hill Road,Oxon Hill,MD,20745,"['Hindustani', 'Chinese', 'Portuguese', 'Spanish', 'Korean', 'French', 'English']",304508
251,56c66be5a73e492741507026,Flagship 1,-77.1181744,39.05565290000001,True,"['24 hours a day, 7 days a week']",12097 Rockville Pike,Rockville,MD,20852,"['French', 'Portuguese', 'Chinese', 'Hindustani', 'Korean', 'Spanish', 'English']",440963
252,56c66be5a73e492741507025,Oxon Hill 2,-76.9830446,38.8041663,False,"['24 hours a day, 7 days a week']",6197 Oxon Hill Road,Oxon Hill,MD,20745,"['Chinese', 'Korean', 'Portuguese', 'French', 'English']",424735
253,56c66be5a73e492741507028,Flagship 3,-77.1181744,39.05565290000001,False,"['24 hours a day, 7 days a week']",12097 Rockville Pike,Rockville,MD,20852,"['Portuguese', 'Chinese', 'Spanish', 'French', 'Hindustani', 'Korean', 'English']",824108
254,56c66be5a73e492741507027,Flagship 2,-77.1181744,39.05565290000001,True,"['24 hours a day, 7 days a week']",12097 Rockville Pike,Rockville,MD,20852,"['Korean', 'Portuguese', 'Spanish', 'French', 'Hindustani', 'English']",385977
255,56c66be5a73e492741507029,Old Keene Mill 1,-77.2364017,38.7790146,True,"['24 hours a day, 7 days a week']",8436 Old Keene Mill Road,Springfield,VA,22152,"['Korean', 'Spanish', 'Hindustani', 'Portuguese', 'English']",266201
256,56c66be5a73e49274150702a,Old Keene Mill 2,-77.2364017,38.7790146,True,"['24 hours a day, 7 days a week']",8436 Old Keene Mill Road,Springfield,VA,22152,"['Spanish', 'Chinese', 'Korean', 'English']",769100
257,56c66be5a73e49274150702b,Boulevard S/C/ Fairfax 1,-77.31286,38.856599,True,"['24 hours a day, 7 days a week']",10670 Fairfax Boulevard,Fairfax,VA,22030,"['Hindustani', 'Portuguese', 'Korean', 'English']",679549
258,56c66be5a73e49274150702c,Boulevard S/C/Fairfax 2,-77.31286,38.856599,False,"['24 hours a day, 7 days a week']",10670 Fairfax Boulevard,Fairfax,VA,22030,['English'],258282
259,56c66be5a73e49274150702d,Kemp Mill 1,-77.03144879999999,39.0411056,False,"['24 hours a day, 7 days a week']",1327 Lamberton Drive,Silver Spring,MD,20902,"['Chinese', 'Portuguese', 'Spanish', 'French', 'Hindustani', 'English']",174006
260,56c66be5a73e49274150702f,Congressional Plaza 1,-77.1247908,39.0617521,True,"['24 hours a day, 7 days a week']",101 Halpine Road,Rockville,MD,20852,"['Chinese', 'Spanish', 'Hindustani', 'English']",862626
261,56c66be5a73e492741507030,Congressional Plaza 2,-77.1247908,39.0617521,True,"['24 hours a day, 7 days a week']",101 Halpine Road,Rockville,MD,20852,"['Hindustani', 'Korean', 'French', 'Chinese', 'English']",878137
262,56c66be5a73e492741507031,Congressional Plaza 3,-77.1247908,39.0617521,False,"['24 hours a day, 7 days a week']",101 Halpine Road,Rockville,MD,20852,"['Spanish', 'Hindustani', 'Portuguese', 'Chinese', 'Korean', 'English']",178305
263,56c66be5a73e49274150702e,Kemp Mill 2,-77.03144879999999,39.0411056,True,"['24 hours a day, 7 days a week']",1327 Lamberton Drive,Silver Spring,MD,20902,"['French', 'Portuguese', 'English']",691286
264,56c66be5a73e492741507032,Veirs Mill 1,-77.08511179999999,39.0572185,True,"['24 hours a day, 7 days a week']",12228 Veirs Mill Road,Silver Spring,MD,20906,"['Portuguese', 'Spanish', 'French', 'Korean', 'Hindustani', 'Chinese', 'English']",729673
265,56c66be5a73e492741507034,Veirs Mill 3,-77.08511179999999,39.0572185,True,"['24 hours a day, 7 days a week']",12228 Veirs Mill Road,Silver Spring,MD,20906,"['Korean', 'Portuguese', 'French', 'English']",4668
266,56c66be5a73e492741507033,Veirs Mill 2,-77.08511179999999,39.0572185,True,"['24 hours a day, 7 days a week']",12228 Veirs Mill Road,Silver Spring,MD,20906,['English'],750707
267,56c66be5a73e492741507035,Silver Hill 1,-76.9424773,38.8402846,True,"['24 hours a day, 7 days a week']",3601 St. Barnabas Road,Silver Hill,MD,20746,"['Korean', 'French', 'English']",251759
268,56c66be5a73e492741507036,Silver Hill 2,-76.9424773,38.8402846,True,"['24 hours a day, 7 days a week']",3601 St. Barnabas Road,Silver Hill,MD,20746,"['French', 'English']",831775
269,56c66be5a73e492741507037,Silver Hill 3,-76.9424773,38.8402846,True,"['24 hours a day, 7 days a week']",3601 St. Barnabas Road,Silver Hill,MD,20746,"['French', 'Chinese', 'Hindustani', 'Spanish', 'English']",765332
270,56c66be5a73e492741507038,Great Falls 1,-77.287893,38.9972567,False,"['24 hours a day, 7 days a week']",9883 Georgetown Pike,Great Falls,VA,22066,"['Korean', 'Hindustani', 'Portuguese', 'Chinese', 'French', 'English']",618011
271,56c66be5a73e492741507039,Great Falls 2,-77.287893,38.9972567,True,"['24 hours a day, 7 days a week']",9883 Georgetown Pike,Great Falls,VA,22066,"['Portuguese', 'Hindustani', 'Chinese', 'Korean', 'French', 'English']",836017
272,56c66be5a73e49274150703a,Parklawn Cafeteria 1,-77.1125374,39.062068,True,"['24 hours a day, 7 days a week']",5600 Fishers Lane,Rockville,MD,20852,"['Chinese', 'English']",717693
273,56c66be5a73e49274150703b,WMATA - Suitland 1,-76.930605,38.8450533,False,"['24 hours a day, 7 days a week']",4500 Silver Hill Road,Suitland,MD,20746,"['Korean', 'French', 'Chinese', 'Hindustani', 'Portuguese', 'English']",776367
274,56c66be5a73e49274150703c,Hillandale 1,-76.97688450000001,39.0213979,True,"['24 hours a day, 7 days a week']",10159 New Hampshire Avenue,Silver Spring,MD,20903,"['French', 'English']",602262
275,56c66be5a73e49274150703e,U of Md. Byrd Stadium 1,-76.9425543,38.9869183,False,[''], College Park Campus,College Park,MD,20742,"['Chinese', 'Hindustani', 'French', 'Portuguese', 'Korean', 'Spanish', 'English']",209237
276,56c66be5a73e49274150703d,Hillandale 2,-76.97688450000001,39.0213979,True,"['24 hours a day, 7 days a week']",10159 New Hampshire Avenue,Silver Spring,MD,20903,"['Chinese', 'Spanish', 'Korean', 'Hindustani', 'English']",291134
277,56c66be5a73e49274150703f,Glenmont 1,-77.0489393,39.0590308,False,"['24 hours a day, 7 days a week']",2315 Randolph Road,Silver Spring,MD,20906,"['Spanish', 'French', 'Hindustani', 'English']",363191
278,56c66be5a73e492741507040,Glenmont 2,-77.0489393,39.0590308,False,"['24 hours a day, 7 days a week']",2315 Randolph Road,Silver Spring,MD,20906,"['Hindustani', 'Portuguese', 'Chinese', 'English']",55281
279,56c66be5a73e492741507041,Glenmont 3,-77.0489393,39.0590308,True,"['24 hours a day, 7 days a week']",2315 Randolph Road,Silver Spring,MD,20906,"['French', 'Portuguese', 'Chinese', 'English']",867277
280,56c66be5a73e492741507043,U of Md Comcast Center 1,-76.9370297,38.9854457,False,[''],7603 Baltimore Avenue,College Park,MD,20742,['English'],280118
281,56c66be5a73e492741507042,U of Md Clarice Smith 1,-76.9370297,38.9854457,True,"['24 hours a day, 7 days a week']",7603 Baltimore Avenue,College Park,MD,20742,"['Spanish', 'Chinese', 'French', 'Hindustani', 'Portuguese', 'Korean', 'English']",709408
282,56c66be5a73e492741507044,U of Md S. Campus Dining Hall 1,-76.9370297,38.9854457,False,"['24 hours a day, 7 days a week']",7603 Baltimore Avenue,College Park,MD,20742,"['Spanish', 'Korean', 'Hindustani', 'French', 'Chinese', 'Portuguese', 'English']",708704
283,56c66be5a73e492741507045,U of Md Stamp Student Union 1,-76.9370297,38.9854457,False,"['24 hours a day, 7 days a week']",7603 Baltimore Avenue,College Park,MD,20742,"['Hindustani', 'French', 'Spanish', 'Korean', 'Portuguese', 'English']",421816
284,56c66be5a73e492741507046,U of Md. Ellicott Hall 1,-76.9370297,38.9854457,True,"['24 hours a day, 7 days a week']",7603 Baltimore Avenue,College Park,MD,20742,"['Portuguese', 'Spanish', 'French', 'Hindustani', 'English']",409040
285,56c66be5a73e492741507048,University Of Maryland 2,-76.9370297,38.9854457,False,"['24 hours a day, 7 days a week']",7603 Baltimore Avenue,College Park,MD,20742,"['Hindustani', 'French', 'Chinese', 'English']",114907
286,56c66be5a73e492741507047,University Of Maryland 1,-76.9370297,38.9854457,True,"['24 hours a day, 7 days a week']",7603 Baltimore Avenue,College Park,MD,20742,"['Korean', 'Hindustani', 'Portuguese', 'Spanish', 'French', 'Chinese', 'English']",191244
287,56c66be5a73e492741507049,Capital Plaza 1,-76.9083224,38.9395921,False,"['24 hours a day, 7 days a week']",6206 Annapolis Road,Landover Hills,MD,20784,"['Portuguese', 'Chinese', 'Hindustani', 'English']",859209
288,56c66be5a73e49274150704a,Capital Plaza 1,-76.9083224,38.9395921,True,"['24 hours a day, 7 days a week']",6206 Annapolis Road,Landover Hills,MD,20784,"['Korean', 'English']",216208
289,56c66be5a73e49274150704b,Capital Plaza 3,-76.9083224,38.9395921,True,"['24 hours a day, 7 days a week']",6206 Annapolis Road,Landover Hills,MD,20784,"['Hindustani', 'Chinese', 'Portuguese', 'English']",652749
290,56c66be5a73e49274150704d,White Oak 1,-76.9914264,39.0420539,False,"['24 hours a day, 7 days a week']",11261 New Hampshire Avenue,Silver Spring,MD,20904,"['French', 'Chinese', 'Hindustani', 'Portuguese', 'Korean', 'Spanish', 'English']",103943
291,56c66be5a73e49274150704c,Capital Plaza,-76.9083224,38.9395921,False,"['24 hours a day, 7 days a week']",6206 Annapolis Road,Landover Hills,MD,20784,"['Portuguese', 'Korean', 'Chinese', 'Spanish', 'French', 'English']",662449
292,56c66be5a73e49274150704e,White Oak 2,-76.9914264,39.0420539,False,"['24 hours a day, 7 days a week']",11261 New Hampshire Avenue,Silver Spring,MD,20904,"['Spanish', 'English']",420254
293,56c66be5a73e49274150704f,Burke Town Plaza 1,-77.27404349999999,38.7788988,True,"['24 hours a day, 7 days a week']",9564 Old Keene Mill Road,Burke,VA,22015,"['Hindustani', 'English']",149832
294,56c66be5a73e492741507050,Seat Pleasant 1,-76.8997794,38.8875289,True,"['24 hours a day, 7 days a week']",6264 Central Avenue,Seat Pleasant,MD,20743,"['Chinese', 'Spanish', 'English']",432885
295,56c66be5a73e492741507052,Aspen Hill 2,-77.079345,39.0787953,True,"['24 hours a day, 7 days a week']",13641 Connecticut Avenue,Silver Spring,MD,20906,['English'],833677
296,56c66be5a73e492741507051,Aspen Hill 1,-77.079345,39.0787953,True,"['24 hours a day, 7 days a week']",13641 Connecticut Avenue,Silver Spring,MD,20906,"['French', 'English']",508583
297,56c66be5a73e492741507054,Saratoga 1,-77.2116939,38.7393933,True,"['24 hours a day, 7 days a week']",8098 Rolling Road,Springfield,VA,22153,"['Portuguese', 'Hindustani', 'French', 'Chinese', 'Korean', 'Spanish', 'English']",12547
298,56c66be5a73e492741507053,Aspen Hill,-77.079345,39.0787953,False,"['Mon 9 AM - 6 PM', 'Tue 9 AM - 6 PM', 'Wed 9 AM - 6 PM', 'Thu 9 AM - 6 PM', 'Fri 9 AM - 6 PM', 'Sat 9 AM - 1 PM']",13641 Connecticut Avenue,Wheaton,MD,20906,"['Hindustani', 'Korean', 'French', 'Chinese', 'English']",291753
299,56c66be5a73e492741507055,Saratoga 2,-77.2116939,38.7393933,True,"['24 hours a day, 7 days a week']",8098 Rolling Road,Springfield,VA,22153,"['Hindustani', 'English']",862055
300,56c66be5a73e492741507057,Rockshire 2,-77.1856214,39.0808583,False,"['24 hours a day, 7 days a week']",2409 Wootton Parkway,Rockville,MD,20850,['English'],348227
301,56c66be5a73e492741507056,Metro Square Building 1,-77.14817099999999,39.083784,True,"['24 hours a day, 7 days a week']",51 Monroe Street,Rockville,MD,20850,"['Hindustani', 'Korean', 'Chinese', 'Spanish', 'Portuguese', 'English']",596945
302,56c66be5a73e492741507058,Fair Oaks Mall 1,-77.3592103,38.8623883,False,"['24 hours a day, 7 days a week']",11750 Fair Oaks,Fairfax,VA,22033,['English'],316136
303,56c66be5a73e492741507059,Hungerford 1,-77.1502326,39.0883223,False,"['24 hours a day, 7 days a week']",387 Hungerford Drive,Rockville,MD,20850,"['Hindustani', 'French', 'Korean', 'Spanish', 'Portuguese', 'Chinese', 'English']",27238
304,56c66be5a73e49274150705b,Hungerford 3,-77.1502326,39.0883223,True,"['24 hours a day, 7 days a week']",387 Hungerford Drive,Rockville,MD,20850,['English'],440502
305,56c66be5a73e49274150705c,Great Eastern 1,-76.8968,38.8529185,False,"['24 hours a day, 7 days a week']",6335 Marlboro Pike,District Heights,MD,20747,"['Portuguese', 'Spanish', 'French', 'English']",708937
306,56c66be5a73e49274150705d,Great Eastern 2,-76.8968,38.8529185,False,"['24 hours a day, 7 days a week']",6335 Marlboro Pike,District Heights,MD,20747,"['Hindustani', 'Chinese', 'Korean', 'English']",805992
307,56c66be5a73e49274150705e,Great Eastern 3,-76.8968,38.8529185,True,"['24 hours a day, 7 days a week']",6335 Marlboro Pike,District Heights,MD,20747,"['Chinese', 'Spanish', 'Hindustani', 'Korean', 'English']",203505
308,56c66be5a73e49274150705a,Hungerford 2,-77.1502326,39.0883223,True,"['24 hours a day, 7 days a week']",387 Hungerford Drive,Rockville,MD,20850,"['Chinese', 'Portuguese', 'Korean', 'French', 'Spanish', 'Hindustani', 'English']",961379
309,56c66be5a73e49274150705f,WMATA - Branch Avenue 1,-76.9115549,38.826975,False,"['24 hours a day, 7 days a week']",4704 Old Soper Road,Suitland,MD,20746,"['Portuguese', 'French', 'Korean', 'Chinese', 'Hindustani', 'English']",100835
310,56c66be5a73e492741507060,Fairfax Corner 2,-77.3544726,38.8582893,True,"['24 hours a day, 7 days a week']",11873 Grand Commons Avenue,Fairfax,VA,22033,"['Chinese', 'Portuguese', 'English']",918473
311,56c66be5a73e492741507061,Spectrum 1,-77.3554856,38.960734,False,"['24 hours a day, 7 days a week']",11874 Spectrum Drive,Reston,VA,20190,"['French', 'Hindustani', 'Korean', 'Spanish', 'Chinese', 'English']",919209
312,56c66be5a73e492741507062,Spectrum 2,-77.3554856,38.960734,False,"['24 hours a day, 7 days a week']",11874 Spectrum Drive,Reston,VA,20190,"['Spanish', 'Korean', 'French', 'Chinese', 'English']",482741
313,56c66be5a73e492741507063,Reston Town Center 1,-77.35863119999999,38.9585119,False,"['24 hours a day, 7 days a week']",1824 Library Street,Reston,VA,20190,"['Hindustani', 'Portuguese', 'French', 'Chinese', 'English']",834233
314,56c66be5a73e492741507065,Rock Creek Village 2,-77.1125617,39.0951431,True,"['24 hours a day, 7 days a week']",5552 Norbeck Road,Rockville,MD,20853,"['French', 'Spanish', 'Chinese', 'Korean', 'Hindustani', 'English']",880569
315,56c66be5a73e492741507064,Rock Creek Village 1,-77.1125617,39.0951431,False,"['24 hours a day, 7 days a week']",5552 Norbeck Road,Rockville,MD,20853,"['Portuguese', 'French', 'Hindustani', 'Korean', 'Chinese', 'English']",560787
316,56c66be5a73e492741507066,Beltway Plaza Mall 1,-76.9099301,38.9995236,False,"['24 hours a day, 7 days a week']",6000 Greenbelt Road,Greenbelt,MD,20770,['English'],81946
317,56c66be5a73e492741507067,Beltway Plaza Mall 3,-76.9099301,38.9995236,False,"['24 hours a day, 7 days a week']",6000 Greenbelt Road,Greenbelt,MD,20770,"['French', 'Spanish', 'Chinese', 'Portuguese', 'English']",944101
318,56c66be5a73e492741507068,Glenridge 3,-76.8859349,38.9511062,False,"['24 hours a day, 7 days a week']",7530 Annapolis Road,Lanham,MD,20784,"['Korean', 'Spanish', 'French', 'English']",131562
319,56c66be5a73e49274150706a,Montgomery College-Rockville 1,-77.15773519999999,39.0973684,True,[''],51 Mannakee Street,Rockville,MD,20850,"['Portuguese', 'Chinese', 'English']",259451
320,56c66be5a73e492741507069,Glenridge 4,-76.8859349,38.9511062,True,"['24 hours a day, 7 days a week']",7530 Annapolis Road,Lanham,MD,20784,"['Chinese', 'English']",373013
321,56c66be5a73e49274150706b,Greenbelt Plaza 1,-76.9087504,38.9977692,True,"['24 hours a day, 7 days a week']",6226 Greenbelt Road,Greenbelt,MD,20770,"['Chinese', 'Hindustani', 'Spanish', 'Portuguese', 'Korean', 'French', 'English']",394304
322,56c66be5a73e49274150706c,Greenbelt Plaza 2,-76.9087504,38.9977692,False,"['24 hours a day, 7 days a week']",6226 Greenbelt Road,Greenbelt,MD,20770,"['Spanish', 'Portuguese', 'Chinese', 'French', 'Hindustani', 'English']",572262
323,56c66be5a73e49274150706d,Greenbelt Plaza 3,-76.9087504,38.9977692,False,"['24 hours a day, 7 days a week']",6226 Greenbelt Road,Greenbelt,MD,20770,"['Portuguese', 'Chinese', 'Hindustani', 'French', 'Spanish', 'English']",347990
324,56c66be5a73e49274150706e,Colesville 1,-77.0025975,39.07319930000001,False,"['24 hours a day, 7 days a week']",13301 New Hampshire Avenue,Silver Spring,MD,20904,"['Chinese', 'English']",919831
325,56c66be5a73e49274150706f,Colesville 2,-77.0025975,39.07319930000001,True,"['24 hours a day, 7 days a week']",13301 New Hampshire Avenue,Silver Spring,MD,20904,"['Hindustani', 'French', 'English']",89682
326,56c66be5a73e492741507071,Pender Village Center 1,-77.3730126,38.8722118,True,"['24 hours a day, 7 days a week']",3907 Fair Ridge Drive,Fairfax,VA,22033,"['Spanish', 'Chinese', 'Portuguese', 'Hindustani', 'French', 'English']",231319
327,56c66be5a73e492741507070,Colesville 3,-77.0025975,39.07319930000001,False,"['24 hours a day, 7 days a week']",13301 New Hampshire Avenue,Silver Spring,MD,20904,"['Portuguese', 'English']",895071
328,56c66be5a73e492741507072,Pender Village Center 2,-77.3730126,38.8722118,True,"['24 hours a day, 7 days a week']",3907 Fair Ridge Drive,Fairfax,VA,22033,"['Hindustani', 'Chinese', 'Korean', 'English']",466801
329,56c66be5a73e492741507073,Plaza Del Mercado 1,-77.04678520000002,39.0905382,True,"['24 hours a day, 7 days a week']",2215 Bel Pre Road,Silver Spring,MD,20906,"['Korean', 'Chinese', 'Spanish', 'Portuguese', 'French', 'English']",616112
330,56c66be5a73e492741507074,Plaza Del Mercado 2,-77.04678520000002,39.0905382,True,"['24 hours a day, 7 days a week']",2215 Bel Pre Road,Silver Spring,MD,20906,"['Spanish', 'Chinese', 'Hindustani', 'Korean', 'Portuguese', 'French', 'English']",113060
331,56c66be5a73e492741507075,Westech Park 1,-76.9670436,39.0576262,True,"['24 hours a day, 7 days a week']",12293 Tech Road,Silver Spring,MD,20904,"['Hindustani', 'English']",672973
332,56c66be5a73e492741507076,Westech Park 2,-76.9670436,39.0576262,True,"['24 hours a day, 7 days a week']",12293 Tech Road,Silver Spring,MD,20904,"['Spanish', 'English']",677967
333,56c66be5a73e492741507078,Traville 1,-77.202846,39.0926471,False,"['24 hours a day, 7 days a week']",9761 Traville Gateway Drive,Rockville,MD,20850,"['Portuguese', 'English']",665159
334,56c66be5a73e492741507079,Traville 2,-77.202846,39.0926471,True,"['24 hours a day, 7 days a week']",9761 Traville Gateway Drive,Rockville,MD,20850,"['Spanish', 'Chinese', 'French', 'Korean', 'Portuguese', 'Hindustani', 'English']",223364
335,56c66be5a73e492741507077,Westech Park 3,-76.9670436,39.0576262,False,"['24 hours a day, 7 days a week']",12293 Tech Road,Silver Spring,MD,20904,"['Portuguese', 'Spanish', 'English']",872834
336,56c66be5a73e49274150707a,WMATA - Greenbelt 1,-76.9064495,39.0059641,False,"['24 hours a day, 7 days a week']",5917 Cherrywood Lane,Greenbelt,MD,20770,"['Spanish', 'Chinese', 'Korean', 'French', 'Portuguese', 'Hindustani', 'English']",136024
337,56c66be5a73e49274150707b,Falls Grove 1,-77.1935101,39.0976479,False,"['24 hours a day, 7 days a week']",14943 Shady Grove Road,Rockville,MD,20850,"['Hindustani', 'Chinese', 'English']",406077
338,56c66be5a73e49274150707c,Falls Grove 2,-77.1935101,39.0976479,True,"['24 hours a day, 7 days a week']",14943 Shady Grove Road,Rockville,MD,20850,"['Portuguese', 'Korean', 'Chinese', 'Hindustani', 'French', 'English']",34129
339,56c66be5a73e49274150707d,Falls Grove 3,-77.1935101,39.0976479,False,"['24 hours a day, 7 days a week']",14943 Shady Grove Road,Rockville,MD,20850,"['Hindustani', 'Chinese', 'Korean', 'Portuguese', 'English']",989529
340,56c66be5a73e49274150707f,Leisure World 2,-77.0757311,39.1036913,False,"['24 hours a day, 7 days a week']",3828 International Drive,Silver Spring,MD,20906,['English'],606769
341,56c66be5a73e49274150707e,Leisure World 1,-77.0757311,39.1036913,False,"['24 hours a day, 7 days a week']",3828 International Drive,Silver Spring,MD,20906,"['Spanish', 'Korean', 'Portuguese', 'French', 'English']",384936
342,56c66be5a73e492741507080,Amtrak - New Carrollton Station 1,-76.87048,38.946827,False,"['24 hours a day, 7 days a week']",4300 Garden City Drive,New Carrollton,MD,20784,"['Portuguese', 'English']",105071
343,56c66be5a73e492741507081,WMATA - New Carrollton 1,-76.8665177,38.952001,False,"['24 hours a day, 7 days a week']",4700 Garden City Drive,New Carrollton,MD,20784,"['Spanish', 'Hindustani', 'English']",769610
344,56c66be5a73e492741507082,Ft. Washington 1,-76.9917377,38.7255719,True,"['24 hours a day, 7 days a week']",980 E Swan Creek Road,Fort Washington,MD,20744,"['Chinese', 'Spanish', 'French', 'English']",822564
345,56c66be5a73e492741507083,Ft. Washington 2,-76.9917377,38.7255719,True,"['24 hours a day, 7 days a week']",980 E Swan Creek Road,Fort Washington,MD,20744,"['Korean', 'Hindustani', 'Spanish', 'French', 'English']",825266
346,56c66be5a73e492741507084,Ft. Washington 3,-76.9917377,38.7255719,True,"['24 hours a day, 7 days a week']",980 E Swan Creek Road,Fort Washington,MD,20744,"['Spanish', 'French', 'Chinese', 'Korean', 'English']",659071
347,56c66be5a73e492741507086,Beltsville 1,-76.912493,39.031856,True,"['24 hours a day, 7 days a week']",10800 Baltimore Avenue,Beltsville,MD,20705,"['Hindustani', 'Korean', 'Portuguese', 'Spanish', 'Chinese', 'French', 'English']",983235
348,56c66be5a73e492741507087,Beltsville 2,-76.912493,39.031856,True,"['24 hours a day, 7 days a week']",10800 Baltimore Avenue,Beltsville,MD,20705,"['Korean', 'Spanish', 'Portuguese', 'French', 'Hindustani', 'English']",9558
349,56c66be5a73e492741507088,Beltsville 3,-76.912493,39.031856,False,"['24 hours a day, 7 days a week']",10800 Baltimore Avenue,Beltsville,MD,20705,"['Portuguese', 'Hindustani', 'Spanish', 'Chinese', 'English']",943811
350,56c66be5a73e492741507085,The NASD Building 1,-77.199958,39.106665,False,"['24 hours a day, 7 days a week']",9513 Key West Ave,Rockville,MD,20850,"['Portuguese', 'Chinese', 'Spanish', 'English']",381796
351,56c66be5a73e492741507089,King Farm 1,-77.17137369999999,39.1138753,False,"['24 hours a day, 7 days a week']",802 Pleasant Drive,Rockville,MD,20850,"['French', 'English']",533761
352,56c66be5a73e49274150708b,Greenway 1,-76.8780764,38.99350039999999,False,"['24 hours a day, 7 days a week']",7515 Greenbelt Road,Greenbelt,MD,20770,"['French', 'Hindustani', 'Korean', 'Spanish', 'Portuguese', 'Chinese', 'English']",953024
353,56c66be5a73e49274150708a,King Farm 2,-77.17137369999999,39.1138753,False,"['24 hours a day, 7 days a week']",802 Pleasant Drive,Rockville,MD,20850,"['Hindustani', 'English']",467118
354,56c66be5a73e49274150708c,Greenway 2,-76.8780764,38.99350039999999,False,"['24 hours a day, 7 days a week']",7515 Greenbelt Road,Greenbelt,MD,20770,"['Chinese', 'Spanish', 'French', 'English']",292447
355,56c66be5a73e49274150708d,WMATA - Shady Grove 1,-77.1647867,39.1171725,True,"['24 hours a day, 7 days a week']",15906 Somerville Drive,Derwood,MD,20855,"['Chinese', 'English']",564275
356,56c66be5a73e49274150708e,Woodland Crossing 1,-77.3945092,38.9491429,False,"['24 hours a day, 7 days a week']",12951 Highland Crossing Drive,Herndon,VA,20171,"['Chinese', 'English']",599720
357,56c66be5a73e492741507090,Boulevard @ Capital Centre 2,-76.84773369999999,38.9013378,True,"['24 hours a day, 7 days a week']",800 Shopper's Way,Largo,MD,20774,"['Chinese', 'Korean', 'Hindustani', 'French', 'Spanish', 'Portuguese', 'English']",325203
358,56c66be5a73e492741507091,Boulevard @ Capital Centre 1,-76.84694549999999,38.9024998,True,"['24 hours a day, 7 days a week']",860-F Capital Centre Drive,Largo,MD,20774,"['Portuguese', 'English']",343307
359,56c66be5a73e492741507092,Lorton 1,-77.26236519999999,38.7140667,True,"['24 hours a day, 7 days a week']",8981 Ox Road,Lorton,VA,22079,"['Portuguese', 'Korean', 'English']",205646
360,56c66be5a73e49274150708f,Woodland Crossing 2,-77.3945092,38.9491429,False,"['24 hours a day, 7 days a week']",12951 Highland Crossing Drive,Herndon,VA,20171,"['Spanish', 'Portuguese', 'Hindustani', 'English']",383972
361,56c66be5a73e492741507093,Lorton 2,-77.26236519999999,38.7140667,True,"['24 hours a day, 7 days a week']",8981 Ox Road,Lorton,VA,22079,"['Spanish', 'English']",58736
362,56c66be5a73e492741507095,Franklin Farms 2,-77.4083935,38.9072869,True,"['24 hours a day, 7 days a week']",13344-A Franklin Farm Road,Herndon,VA,22071,"['Hindustani', 'English']",416792
363,56c66be5a73e492741507094,Franklin Farms 1,-77.4083935,38.9072869,False,"['24 hours a day, 7 days a week']",13344-A Franklin Farm Road,Herndon,VA,22071,"['Spanish', 'Korean', 'Portuguese', 'Hindustani', 'English']",282341
364,56c66be5a73e492741507096,Sterling Town Center 1,-77.4052123,39.0334919,False,"['24 hours a day, 7 days a week']",21700 Town Center Plaza,Sterling,VA,20164,"['Hindustani', 'Spanish', 'Portuguese', 'Chinese', 'French', 'English']",859547
365,56c66be5a73e492741507097,Sterling Town Center 2,-77.4052123,39.0334919,True,"['24 hours a day, 7 days a week']",21700 Town Center Plaza,Sterling,VA,20164,"['French', 'Portuguese', 'Spanish', 'Chinese', 'English']",516023
366,56c66be5a73e492741507098,WMATA - Largo Town Center 1,-76.84240799999999,38.900421,True,"['24 hours a day, 7 days a week']",9000 Lottsford Road,Largo,MD,20774,['English'],498470
367,56c66be5a73e49274150709a,Herndon 3,-77.3988895,38.96223519999999,True,"['24 hours a day, 7 days a week']",1201 Elden Street,Herndon,VA,20170,"['Spanish', 'Portuguese', 'English']",823398
368,56c66be5a73e49274150709b,Herndon 4,-77.3988895,38.96223519999999,True,"['24 hours a day, 7 days a week']",1201 Elden Street,Herndon,VA,20170,"['French', 'Korean', 'Portuguese', 'English']",633332
369,56c66be5a73e49274150709c,Muddy Branch 1,-77.2159336,39.1143906,True,"['24 hours a day, 7 days a week']",812 Muddy Branch Road,Gaithersburg,MD,20878,"['Hindustani', 'Spanish', 'Chinese', 'English']",518395
370,56c66be5a73e492741507099,Herndon 1,-77.3988895,38.96223519999999,False,"['24 hours a day, 7 days a week']",1201 Elden Street,Herndon,VA,20170,"['Portuguese', 'Chinese', 'Korean', 'French', 'Spanish', 'English']",665510
371,56c66be5a73e49274150709d,Muddy Branch 2,-77.2159336,39.1143906,True,"['24 hours a day, 7 days a week']",812 Muddy Branch Road,Gaithersburg,MD,20878,"['Korean', 'Spanish', 'French', 'English']",130044
372,56c66be5a73e49274150709f,Largo Town Center 1,-76.83723619999999,38.9023282,False,"['24 hours a day, 7 days a week']",1040 Largo Center Drive,Largo,MD,20774,['English'],364607
373,56c66be5a73e49274150709e,Washingtonian Center 1,-77.2002122,39.1179301,False,"['24 hours a day, 7 days a week']",20 Grand Corner Avenue,Gaithersburg,MD,20878,"['Hindustani', 'Portuguese', 'French', 'Chinese', 'Korean', 'English']",283095
374,56c66be5a73e4927415070a0,Largo Town Center 2,-76.83723619999999,38.9023282,True,"['24 hours a day, 7 days a week']",1040 Largo Center Drive,Largo,MD,20774,"['Portuguese', 'English']",17925
375,56c66be5a73e4927415070a1,Largo Town Center 3,-76.83723619999999,38.9023282,False,"['24 hours a day, 7 days a week']",1040 Largo Center Drive,Largo,MD,20774,"['Hindustani', 'English']",339043
376,56c66be5a73e4927415070a2,Largo Town Center 4,-76.83723619999999,38.9023282,True,"['24 hours a day, 7 days a week']",1040 Largo Center Drive,Largo,MD,20774,"['Chinese', 'Korean', 'Spanish', 'French', 'Hindustani', 'English']",815898
377,56c66be5a73e4927415070a4,Shady Grove 1,-77.1680586,39.1300315,True,"['24 hours a day, 7 days a week']",16827 Crabbs Branch Way,Rockville,MD,20855,"['Chinese', 'Hindustani', 'English']",794678
378,56c66be5a73e4927415070a5,Shady Grove 2,-77.1680586,39.1300315,True,"['24 hours a day, 7 days a week']",16827 Crabbs Branch Way,Rockville,MD,20855,"['Portuguese', 'Chinese', 'Spanish', 'French', 'English']",1953
379,56c66be5a73e4927415070a3,Largo Town Center,-76.83723619999999,38.9023282,False,[''],1040 Largo Center Dr,Largo,MD,20774,"['Spanish', 'Chinese', 'Korean', 'Portuguese', 'Hindustani', 'French', 'English']",273086
380,56c66be5a73e4927415070a6,Clinton Crossing 1,-76.8797199,38.7511838,False,"['24 hours a day, 7 days a week']",8845 Branch Avenue,Clinton,MD,20735,"['Spanish', 'Hindustani', 'Chinese', 'Portuguese', 'French', 'English']",650100
381,56c66be5a73e4927415070a7,Clinton Crossing 2,-76.8797199,38.7511838,True,"['24 hours a day, 7 days a week']",8845 Branch Avenue,Clinton,MD,20735,"['French', 'Hindustani', 'Spanish', 'Chinese', 'Portuguese', 'English']",951460
382,56c66be5a73e4927415070a8,Kentlands 1,-77.2382506,39.123809,True,"['24 hours a day, 7 days a week']",317 Kentlands Boulevard,Gaithersburg,MD,20878,"['Chinese', 'French', 'Korean', 'Spanish', 'Hindustani', 'English']",12085
383,56c66be5a73e4927415070a9,Kentlands 2,-77.2382506,39.123809,True,"['24 hours a day, 7 days a week']",317 Kentlands Boulevard,Gaithersburg,MD,20878,"['Korean', 'French', 'Chinese', 'Spanish', 'Portuguese', 'English']",498560
384,56c66be5a73e4927415070aa,Kentlands 3,-77.2382506,39.123809,False,"['24 hours a day, 7 days a week']",317 Kentlands Boulevard,Gaithersburg,MD,20878,"['Hindustani', 'French', 'Portuguese', 'Spanish', 'Chinese', 'Korean', 'English']",189485
385,56c66be5a73e4927415070ab,Kentlands 4,-77.2382506,39.123809,False,"['24 hours a day, 7 days a week']",317 Kentlands Boulevard,Gaithersburg,MD,20878,"['Portuguese', 'Spanish', 'English']",497680
386,56c66be5a73e4927415070ac,Quince Orchard/Darnestown 1,-77.25308299999999,39.118362,True,"['24 hours a day, 7 days a week']",12201 Darnestown Road,Gaithersburg,MD,20878,"['Spanish', 'English']",517523
387,56c66be5a73e4927415070ae,Quince Orchard/Darnestown 3,-77.25308299999999,39.118362,False,"['24 hours a day, 7 days a week']",12201 Darnestown Road,Gaithersburg,MD,20878,"['Chinese', 'Korean', 'Spanish', 'Portuguese', 'French', 'Hindustani', 'English']",816705
388,56c66be5a73e4927415070ad,Quince Orchard/Darnestown 2,-77.25308299999999,39.118362,True,"['24 hours a day, 7 days a week']",12201 Darnestown Road,Gaithersburg,MD,20878,"['Portuguese', 'Spanish', 'Chinese', 'French', 'Hindustani', 'Korean', 'English']",858872
389,56c66be5a73e4927415070af,Chantilly 1,-77.4317798,38.8938701,True,"['24 hours a day, 7 days a week']",14001 Lee Jackson Memorial Highway,Chantilly,VA,20151,"['Portuguese', 'Spanish', 'Korean', 'French', 'Chinese', 'Hindustani', 'English']",674802
390,56c66be5a73e4927415070b0,Chantilly 2,-77.4317798,38.8938701,True,"['24 hours a day, 7 days a week']",14001 Lee Jackson Memorial Highway,Chantilly,VA,20151,"['Korean', 'French', 'Hindustani', 'English']",871408
391,56c66be5a73e4927415070b1,Chantilly 3,-77.4317798,38.8938701,True,"['24 hours a day, 7 days a week']",14001 Lee Jackson Memorial Highway,Chantilly,VA,20151,"['Hindustani', 'Portuguese', 'Chinese', 'French', 'English']",338972
392,56c66be5a73e4927415070b2,Vista Gardens/Lanham 1,-76.822688,38.955353,True,"['24 hours a day, 7 days a week']",10651 Martin Luther King Jr. Highway,Bowie,MD,20720,"['French', 'English']",576764
393,56c66be5a73e4927415070b3,Vista Gardens/Lanham 2,-76.822688,38.955353,True,"['24 hours a day, 7 days a week']",10651 Martin Luther King Jr. Highway,Bowie,MD,20720,"['French', 'Korean', 'Spanish', 'Portuguese', 'Chinese', 'Hindustani', 'English']",819156
394,56c66be5a73e4927415070b4,Vista Gardens/Lanham 3,-76.822688,38.955353,True,"['24 hours a day, 7 days a week']",10651 Martin Luther King Jr. Highway,Bowie,MD,20720,"['French', 'Chinese', 'English']",168171
395,56c66be5a73e4927415070b5,Potomac Run 1,-77.40228479999999,39.0252633,True,"['24 hours a day, 7 days a week']",46160 Potomac Run Plaza,Sterling,VA,20164,"['Korean', 'Spanish', 'Hindustani', 'Portuguese', 'Chinese', 'English']",253633
396,56c66be5a73e4927415070b6,Potomac Run 2,-77.40228479999999,39.0252633,False,"['24 hours a day, 7 days a week']",46160 Potomac Run Plaza,Sterling,VA,20164,"['Hindustani', 'Korean', 'French', 'English']",535728
397,56c66be5a73e4927415070b8,Centreville 2,-77.43151,38.8357817,False,"['24 hours a day, 7 days a week']",5902 Old Centreville Road,Centreville,VA,20121,"['Portuguese', 'Chinese', 'French', 'English']",667318
398,56c66be5a73e4927415070b7,Centreville 1,-77.43151,38.8357817,False,"['24 hours a day, 7 days a week']",5902 Old Centreville Road,Centreville,VA,20121,"['Spanish', 'Korean', 'English']",493842
399,56c66be5a73e4927415070b9,Centreville 3,-77.43151,38.8357817,False,"['24 hours a day, 7 days a week']",5902 Old Centreville Road,Centreville,VA,20121,"['Spanish', 'English']",276603
400,56c66be5a73e4927415070ba,Cascades 1,-77.3974851,39.0352526,False,"['24 hours a day, 7 days a week']",20970 Southbanks Street,Sterling,VA,20165,"['Hindustani', 'French', 'English']",965328
401,56c66be5a73e4927415070bb,Cascades 2,-77.3974851,39.0352526,True,"['24 hours a day, 7 days a week']",20970 Southbanks Street,Sterling,VA,20165,['English'],829059
402,56c66be5a73e4927415070bc,Cascades 3,-77.3974851,39.0352526,True,"['24 hours a day, 7 days a week']",20970 Southbanks Street,Sterling,VA,20165,"['French', 'Chinese', 'English']",677965
403,56c66be5a73e4927415070bd,Olney 1,-77.0664773,39.1501836,False,"['24 hours a day, 7 days a week']",17831 Georgia Avenue,Olney,MD,20832,"['Korean', 'Spanish', 'Portuguese', 'English']",409204
404,56c66be5a73e4927415070bf,Holiday Inn - Dulles 1,-77.42985809999999,38.9848323,True,"['24 hours a day, 7 days a week']",1000 Sully Road,Sterling,VA,20166,"['Korean', 'French', 'Spanish', 'Chinese', 'English']",323151
405,56c66be5a73e4927415070be,Olney 2,-77.0664773,39.1501836,False,"['24 hours a day, 7 days a week']",17831 Georgia Avenue,Olney,MD,20832,"['Spanish', 'Chinese', 'Korean', 'Hindustani', 'French', 'Portuguese', 'English']",928306
406,56c66be5a73e4927415070c0,Diamond Square 1,-77.2177942,39.1428654,True,"['24 hours a day, 7 days a week']",12 Bureau Drive,Gaithersburg,MD,20878,"['Chinese', 'Spanish', 'Portuguese', 'Korean', 'Hindustani', 'French', 'English']",607530
407,56c66be5a73e4927415070c2,Diamond Square 3,-77.2177942,39.1428654,False,"['24 hours a day, 7 days a week']",12 Bureau Drive,Gaithersburg,MD,20878,"['Korean', 'French', 'Chinese', 'Hindustani', 'Portuguese', 'Spanish', 'English']",468459
408,56c66be5a73e4927415070c1,Diamond Square 2,-77.2177942,39.1428654,False,"['24 hours a day, 7 days a week']",12 Bureau Drive,Gaithersburg,MD,20878,['English'],127758
409,56c66be5a73e4927415070c3,Spring Hill Suites 1,-77.42985809999999,38.9912191,False,"['24 hours a day, 7 days a week']",22595 Shaw Road,Sterling,VA,20166,"['Hindustani', 'Korean', 'Chinese', 'Spanish', 'English']",26788
410,56c66be5a73e4927415070c4,Olney Town Center 1,-77.06269329999999,39.1516869,False,"['24 hours a day, 7 days a week']",18104 Town Center Drive,Olney,MD,20832,"['Hindustani', 'Chinese', 'French', 'English']",453668
411,56c66be5a73e4927415070c5,Olney Town Center 2,-77.06269329999999,39.1516869,False,"['24 hours a day, 7 days a week']",18104 Town Center Drive,Olney,MD,20832,['English'],477207
412,56c66be5a73e4927415070c7,Dulles International 1,-77.4480674,38.9525892,False,"['24 hours a day, 7 days a week']",1 Saarinen Circle,Dulles,VA,20166,"['Hindustani', 'Chinese', 'Spanish', 'Portuguese', 'French', 'English']",335684
413,56c66be5a73e4927415070c8,Gaithersburg 1,-77.2106982,39.1518425,False,"['24 hours a day, 7 days a week']",509 N Frederick Avenue,Gaithersburg,MD,20877,"['Chinese', 'Portuguese', 'Korean', 'Hindustani', 'English']",626271
414,56c66be5a73e4927415070c6,Olney Town Center 3,-77.06269329999999,39.1516869,True,"['24 hours a day, 7 days a week']",18104 Town Center Drive,Olney,MD,20832,"['French', 'Hindustani', 'Korean', 'Chinese', 'Portuguese', 'English']",22162
415,56c66be5a73e4927415070c9,Gaithersburg 2,-77.2106982,39.1518425,False,"['24 hours a day, 7 days a week']",509 N Frederick Avenue,Gaithersburg,MD,20877,"['Hindustani', 'Spanish', 'French', 'Korean', 'Chinese', 'Portuguese', 'English']",679209
416,56c66be5a73e4927415070ca,Gaithersburg 3,-77.2106982,39.1518425,False,"['24 hours a day, 7 days a week']",509 N Frederick Avenue,Gaithersburg,MD,20877,"['Portuguese', 'Chinese', 'Hindustani', 'Spanish', 'French', 'English']",310552
417,56c66be5a73e4927415070cb,Burtonsville Town Station 1,-76.9337911,39.11131779999999,True,"['24 hours a day, 7 days a week']",15664 Old Columbia Pike,Burtonsville,MD,20866,"['Spanish', 'Portuguese', 'Hindustani', 'French', 'English']",459687
418,56c66be5a73e4927415070cc,Burtonsville Town Station 2,-76.9337911,39.11131779999999,True,"['24 hours a day, 7 days a week']",15664 Old Columbia Pike,Burtonsville,MD,20866,"['Spanish', 'Korean', 'English']",970877
419,56c66be5a73e4927415070cd,Burtonsville Town Station 3,-76.9337911,39.11131779999999,True,"['24 hours a day, 7 days a week']",15664 Old Columbia Pike,Burtonsville,MD,20866,['English'],538745
420,56c66be5a73e4927415070ce,Holiday Inn - Gaithersburg 1,-77.2116597,39.1537073,True,"['24 hours a day, 7 days a week']",2 Montgomery Village Avenue,Gaithersburg,MD,20879,"['Chinese', 'Spanish', 'Hindustani', 'French', 'English']",856116
421,56c66be5a73e4927415070cf,Washington Dulles International 1,-77.4484418,38.9592863,True,"['24 hours a day, 7 days a week']",45020 Aviation Drive,Sterling,VA,20166,"['Korean', 'Chinese', 'English']",486124
422,56c66be5a73e4927415070d0,Washington Dulles International 11,-77.4484418,38.9592863,False,"['24 hours a day, 7 days a week']",45020 Aviation Drive,Sterling,VA,20166,"['French', 'English']",121405
423,56c66be5a73e4927415070d1,Washington Dulles International 2,-77.4484418,38.9592863,False,"['24 hours a day, 7 days a week']",45020 Aviation Drive,Sterling,VA,20166,"['Hindustani', 'Chinese', 'Portuguese', 'Spanish', 'French', 'Korean', 'English']",9592
424,56c66be5a73e4927415070d2,Washington Dulles International 3,-77.4484418,38.9592863,True,"['24 hours a day, 7 days a week']",45020 Aviation Drive,Sterling,VA,20166,"['Spanish', 'English']",428885
425,56c66be5a73e4927415070d3,Washington Dulles International 4,-77.4484418,38.9592863,False,"['24 hours a day, 7 days a week']",45020 Aviation Drive,Sterling,VA,20166,"['French', 'Spanish', 'Chinese', 'Portuguese', 'English']",818297
426,56c66be5a73e4927415070d4,Washington Dulles International 5,-77.4484418,38.9592863,False,"['24 hours a day, 7 days a week']",45020 Aviation Drive,Sterling,VA,20166,"['French', 'Spanish', 'Portuguese', 'Chinese', 'Hindustani', 'Korean', 'English']",190781
427,56c66be5a73e4927415070d6,Washington Dulles International 7,-77.4484418,38.9592863,False,"['24 hours a day, 7 days a week']",45020 Aviation Drive,Sterling,VA,20166,"['Portuguese', 'Korean', 'Chinese', 'Hindustani', 'French', 'English']",524283
428,56c66be5a73e4927415070d5,Washington Dulles International 6,-77.4484418,38.9592863,False,"['24 hours a day, 7 days a week']",45020 Aviation Drive,Sterling,VA,20166,"['Korean', 'French', 'Portuguese', 'Spanish', 'Chinese', 'English']",920693
429,56c66be5a73e4927415070d8,Washington Dulles International 9,-77.4484418,38.9592863,True,"['24 hours a day, 7 days a week']",45020 Aviation Drive,Sterling,VA,20166,"['Spanish', 'English']",124543
430,56c66be5a73e4927415070d7,Washington Dulles International 8,-77.4484418,38.9592863,False,"['24 hours a day, 7 days a week']",45020 Aviation Drive,Sterling,VA,20166,"['Portuguese', 'Spanish', 'French', 'English']",292739
431,56c66be5a73e4927415070d9,Stone Road Village 1,-77.45059789999999,38.854388,False,"['24 hours a day, 7 days a week']",5613 Stone Road,Centreville,VA,20120,['English'],578965
432,56c66be5a73e4927415070db,Washington Dulles International 10,-77.4474395,38.95817359999999,True,"['24 hours a day, 7 days a week']",42020 Aviation Drive,Sterling,VA,20166,"['Korean', 'Hindustani', 'Portuguese', 'French', 'Chinese', 'English']",67031
433,56c66be5a73e4927415070da,Stone Road Village 2,-77.45059789999999,38.854388,True,"['24 hours a day, 7 days a week']",5613 Stone Road,Centreville,VA,20120,"['Spanish', 'Chinese', 'French', 'Hindustani', 'English']",725964
434,56c66be5a73e4927415070dc,Dulles Town Crossing 1,-77.42435329999999,39.024146,False,"['24 hours a day, 7 days a week']",45545 Dulles Eastern Plaza,Sterling,VA,20166,"['Korean', 'French', 'Portuguese', 'English']",347042
435,56c66be5a73e4927415070dd,Dulles Town Crossing 2,-77.42435329999999,39.024146,True,"['24 hours a day, 7 days a week']",45545 Dulles Eastern Plaza,Sterling,VA,20166,"['Spanish', 'Chinese', 'Portuguese', 'French', 'Hindustani', 'Korean', 'English']",48436
436,56c66be5a73e4927415070de,Dulles Town 1,-77.4234606,39.0318656,True,"['24 hours a day, 7 days a week']",21100 Dulles Town Circle,Sterling,VA,20166,"['Portuguese', 'Spanish', 'French', 'Chinese', 'Hindustani', 'English']",567308
437,56c66be5a73e4927415070e0,Dulles Town 3,-77.4234606,39.0318656,False,"['24 hours a day, 7 days a week']",21100 Dulles Town Circle,Sterling,VA,20166,"['Korean', 'Portuguese', 'French', 'Chinese', 'Spanish', 'English']",266368
438,56c66be5a73e4927415070e1,Dulles Town Center 1,-77.4234606,39.0318656,False,"['24 hours a day, 7 days a week']",21100 Dulles Town Circle,Sterling,VA,20166,"['French', 'Hindustani', 'Spanish', 'Korean', 'Chinese', 'Portuguese', 'English']",27993
439,56c66be5a73e4927415070df,Dulles Town 2,-77.4234606,39.0318656,False,"['24 hours a day, 7 days a week']",21100 Dulles Town Circle,Sterling,VA,20166,"['Korean', 'Spanish', 'Chinese', 'French', 'Portuguese', 'Hindustani', 'English']",943995
440,56c66be5a73e4927415070e2,Dulles Town Center 2,-77.4234606,39.0318656,True,"['24 hours a day, 7 days a week']",21100 Dulles Town Circle,Sterling,VA,20166,"['Hindustani', 'French', 'Chinese', 'Spanish', 'English']",271252
441,56c66be5a73e4927415070e3,Contee Road/Laurel 1,-76.8694496,39.0778305,True,"['24 hours a day, 7 days a week']",13600 Baltimore Avenue,Laurel,MD,20707,"['Korean', 'Hindustani', 'French', 'Portuguese', 'English']",711839
442,56c66be5a73e4927415070e5,Contee Road/Laurel 3,-76.8694496,39.0778305,True,"['24 hours a day, 7 days a week']",13600 Baltimore Avenue,Laurel,MD,20707,"['Spanish', 'French', 'Hindustani', 'Portuguese', 'Korean', 'English']",949271
443,56c66be5a73e4927415070e4,Contee Road/Laurel 2,-76.8694496,39.0778305,False,"['24 hours a day, 7 days a week']",13600 Baltimore Avenue,Laurel,MD,20707,"['Chinese', 'English']",273704
444,56c66be5a73e4927415070e7,Dulles 28 2,-77.4376746,39.0077102,False,"['24 hours a day, 7 days a week']",21990 Colorado Drive,Sterling,VA,20166,"['Portuguese', 'English']",628239
445,56c66be5a73e4927415070e6,Dulles 28 1,-77.4376746,39.0077102,True,"['24 hours a day, 7 days a week']",21990 Colorado Drive,Sterling,VA,20166,"['Spanish', 'Hindustani', 'English']",897042
446,56c66be5a73e4927415070e8,Dulles 28 3,-77.4376746,39.0077102,True,"['24 hours a day, 7 days a week']",21990 Colorado Drive,Sterling,VA,20166,['English'],495075
447,56c66be5a73e4927415070ea,Clopper Mill 2,-77.27475760000002,39.1475345,False,"['24 hours a day, 7 days a week']",18006 Mateny Road,Germantown,MD,20874,"['Portuguese', 'Korean', 'English']",784433
448,56c66be5a73e4927415070eb,Montgomery Village 1,-77.207241,39.170525,False,"['24 hours a day, 7 days a week']",10011 Stedwick Road,Gaithersburg,MD,20879,"['French', 'Korean', 'Hindustani', 'Chinese', 'Portuguese', 'English']",349354
449,56c66be5a73e4927415070ec,Montgomery Village 2,-77.207241,39.170525,True,"['24 hours a day, 7 days a week']",10011 Stedwick Road,Gaithersburg,MD,20879,"['Chinese', 'Hindustani', 'Spanish', 'Portuguese', 'Korean', 'French', 'English']",370387
450,56c66be5a73e4927415070e9,Clopper Mill 1,-77.27475760000002,39.1475345,True,"['24 hours a day, 7 days a week']",18006 Mateny Road,Germantown,MD,20874,"['Portuguese', 'Spanish', 'French', 'English']",668946
451,56c66be5a73e4927415070ed,Montgomery Village 3,-77.207241,39.170525,False,"['24 hours a day, 7 days a week']",10011 Stedwick Road,Gaithersburg,MD,20879,"['Chinese', 'Portuguese', 'English']",430286
452,56c66be5a73e4927415070ef,Kingsview/Germantown 2,-77.2792611,39.1598496,True,"['24 hours a day, 7 days a week']",13408 Kingsview Village Avenue,Germantown,MD,20874,"['Hindustani', 'Spanish', 'Korean', 'Portuguese', 'Chinese', 'English']",767321
453,56c66be5a73e4927415070ee,Kingsview/Germantown 1,-77.2792611,39.1598496,True,"['24 hours a day, 7 days a week']",13408 Kingsview Village Avenue,Germantown,MD,20874,"['Portuguese', 'Chinese', 'Hindustani', 'English']",701997
454,56c66be5a73e4927415070f0,Glen 1,-77.3344445,38.67350589999999,True,"['24 hours a day, 7 days a week']",4229 Merchant Plaza,Woodbridge,VA,22192,"['Portuguese', 'Chinese', 'Spanish', 'French', 'English']",310863
455,56c66be5a73e4927415070f1,Glen 2,-77.3344445,38.67350589999999,True,"['24 hours a day, 7 days a week']",4229 Merchant Plaza,Woodbridge,VA,22192,"['French', 'English']",426243
456,56c66be5a73e4927415070f2,Eastern Marketplace 1,-77.48786199999999,38.9145961,True,"['24 hours a day, 7 days a week']",25400 Eastern Marketplace Plaza,Chantilly,VA,20152,"['Spanish', 'Chinese', 'Hindustani', 'Korean', 'Portuguese', 'English']",88962
457,56c66be5a73e4927415070f4,Eastern Marketplace 3,-77.48786199999999,38.9145961,True,"['24 hours a day, 7 days a week']",25400 Eastern Marketplace Plaza,Chantilly,VA,20152,"['Korean', 'Portuguese', 'English']",430093
458,56c66be5a73e4927415070f3,Eastern Marketplace 2,-77.48786199999999,38.9145961,True,"['24 hours a day, 7 days a week']",25400 Eastern Marketplace Plaza,Chantilly,VA,20152,"['French', 'Korean', 'Hindustani', 'Chinese', 'Portuguese', 'Spanish', 'English']",915364
459,56c66be5a73e4927415070f5,Laurel Shopping Center 1,-76.8538429,39.0951371,True,"['24 hours a day, 7 days a week']",1025 Washington Boulevard,Laurel,MD,20707,['English'],123898
460,56c66be5a73e4927415070f6,Laurel Shopping Center 2,-76.8538429,39.0951371,False,"['24 hours a day, 7 days a week']",1025 Washington Boulevard,Laurel,MD,20707,"['Korean', 'French', 'Chinese', 'Hindustani', 'English']",54083
461,56c66be5a73e4927415070f7,Laurel Shopping Center 3,-76.8538429,39.0951371,False,"['24 hours a day, 7 days a week']",1025 Washington Boulevard,Laurel,MD,20707,"['Korean', 'Portuguese', 'Chinese', 'French', 'Hindustani', 'Spanish', 'English']",241460
462,56c66be5a73e4927415070f8,Goshen 1,-77.1890355,39.1858304,False,"['24 hours a day, 7 days a week']",20000 Goshen Road,Gaithersburg,MD,20879,"['Korean', 'Chinese', 'English']",394985
463,56c66be5a73e4927415070f9,Goshen 2,-77.1890355,39.1858304,False,"['24 hours a day, 7 days a week']",20000 Goshen Road,Gaithersburg,MD,20879,"['French', 'Portuguese', 'Chinese', 'Korean', 'English']",516440
464,56c66be5a73e4927415070fa,Goshen 3,-77.1890355,39.1858304,False,"['24 hours a day, 7 days a week']",20000 Goshen Road,Gaithersburg,MD,20879,"['Portuguese', 'Hindustani', 'Korean', 'English']",316678
465,56c66be5a73e4927415070fb,Shops @ County Center/Hoadly 1,-77.3638861,38.6788052,False,"['24 hours a day, 7 days a week']",12891 Galveston Court,Manassas,VA,20112,"['Portuguese', 'Chinese', 'Korean', 'Spanish', 'Hindustani', 'English']",519375
466,56c66be5a73e4927415070fc,Shops @ County Center/Hoadly 2,-77.3638861,38.6788052,False,"['24 hours a day, 7 days a week']",12891 Galveston Court,Manassas,VA,20112,"['Chinese', 'Hindustani', 'French', 'Spanish', 'Korean', 'Portuguese', 'English']",781080
467,56c66be5a73e4927415070fd,Montgomery College Germantown 1,-77.24657619999999,39.1863063,True,[''],20200 Observation Drive,Germantown,MD,20876,"['Chinese', 'Spanish', 'Korean', 'Hindustani', 'Portuguese', 'French', 'English']",583557
468,56c66be5a73e4927415070fe,Germantown Town Center 1,-77.26800659999999,39.1803311,True,"['24 hours a day, 7 days a week']",19801 Century Boulevard,Germantown,MD,20874,['English'],728482
469,56c66be5a73e492741507100,Germantown Town Center 3,-77.26800659999999,39.1803311,True,"['24 hours a day, 7 days a week']",19801 Century Boulevard,Germantown,MD,20874,"['Portuguese', 'Korean', 'English']",824042
470,56c66be5a73e4927415070ff,Germantown Town Center 2,-77.26800659999999,39.1803311,True,"['24 hours a day, 7 days a week']",19801 Century Boulevard,Germantown,MD,20874,"['Korean', 'Hindustani', 'Chinese', 'Portuguese', 'French', 'English']",612382
471,56c66be5a73e492741507101,Signal Hill 1,-77.4498947,38.7492746,True,"['24 hours a day, 7 days a week']",9560 Liberia Avenue,Manassas,VA,20110,"['Korean', 'French', 'Hindustani', 'Chinese', 'Portuguese', 'Spanish', 'English']",246839
472,56c66be5a73e492741507102,Signal Hill 2,-77.4498947,38.7492746,True,"['24 hours a day, 7 days a week']",9560 Liberia Avenue,Manassas,VA,20110,"['Chinese', 'Korean', 'Hindustani', 'English']",964834
473,56c66be5a73e492741507103,Ashburn Town Square 1,-77.4811038,39.0228517,True,"['24 hours a day, 7 days a week']",43931 Farmwell Hunt Plaza,Ashburn,VA,20147,"['Chinese', 'Portuguese', 'Hindustani', 'Korean', 'Spanish', 'French', 'English']",626511
474,56c66be5a73e492741507104,Ashburn Town Square 2,-77.4811038,39.0228517,True,"['24 hours a day, 7 days a week']",43931 Farmwell Hunt Plaza,Ashburn,VA,20147,"['Chinese', 'Spanish', 'English']",304406
475,56c66be5a73e492741507105,Ashburn Village 1,-77.4737347,39.0431277,False,"['24 hours a day, 7 days a week']",44151 Ashburn Shopping Plaza,Ashburn,VA,20147,"['Hindustani', 'Chinese', 'Spanish', 'Korean', 'French', 'English']",253277
476,56c66be5a73e492741507107,Ashburn Village 3,-77.4737347,39.0431277,False,"['24 hours a day, 7 days a week']",44151 Ashburn Shopping Plaza,Ashburn,VA,20147,"['French', 'Hindustani', 'Korean', 'Portuguese', 'Spanish', 'English']",707346
477,56c66be5a73e492741507108,Woodbridge 1,-77.2888725,38.6293941,True,"['24 hours a day, 7 days a week']",14901 Potomac Town Place,Woodbridge,VA,22191,['English'],44101
478,56c66be5a73e492741507109,Cheshire Station 1,-77.33334599999999,38.6468711,True,"['24 hours a day, 7 days a week']",4101 Cheshire Station Plaza,Dale City,VA,22193,"['Korean', 'Spanish', 'English']",600521
479,56c66be5a73e492741507106,Ashburn Village 2,-77.4737347,39.0431277,True,"['24 hours a day, 7 days a week']",44151 Ashburn Shopping Plaza,Ashburn,VA,20147,"['Portuguese', 'Chinese', 'Hindustani', 'Korean', 'English']",901153
480,56c66be5a73e49274150710a,Cheshire Station 2,-77.33334599999999,38.6468711,True,"['24 hours a day, 7 days a week']",4101 Cheshire Station Plaza,Dale City,VA,22193,"['French', 'Spanish', 'Chinese', 'Portuguese', 'Hindustani', 'Korean', 'English']",568425
481,56c66be5a73e49274150710c,Neelsville 2,-77.24533149999999,39.20431689999999,True,"['24 hours a day, 7 days a week']",21117 Frederick Road,Germantown,MD,20876,"['Korean', 'French', 'Portuguese', 'Hindustani', 'Chinese', 'Spanish', 'English']",644137
482,56c66be5a73e49274150710b,Neelsville 1,-77.24533149999999,39.20431689999999,True,"['24 hours a day, 7 days a week']",21117 Frederick Road,Germantown,MD,20876,"['Spanish', 'English']",699947
483,56c66be5a73e49274150710d,Neelsville 3,-77.24533149999999,39.20431689999999,True,"['24 hours a day, 7 days a week']",21117 Frederick Road,Germantown,MD,20876,"['Portuguese', 'English']",413100
484,56c66be5a73e49274150710e,Bowie 1,-76.7324934,38.9801487,True,"['24 hours a day, 7 days a week']",15460 Annapolis Road,Bowie,MD,20715,"['Chinese', 'Spanish', 'French', 'Portuguese', 'Korean', 'Hindustani', 'English']",118019
485,56c66be5a73e49274150710f,Bowie 2,-76.7324934,38.9801487,False,"['24 hours a day, 7 days a week']",15460 Annapolis Road,Bowie,MD,20715,"['Hindustani', 'French', 'Chinese', 'Spanish', 'English']",723195
486,56c66be5a73e492741507110,Corridor Marketplace 1,-76.80815799999999,39.0978281,True,"['24 hours a day, 7 days a week']",3355 Corridor Marketplace,Laurel,MD,20724,"['French', 'Chinese', 'Hindustani', 'Portuguese', 'English']",416799
487,56c66be5a73e492741507111,Corridor Marketplace 2,-76.80815799999999,39.0978281,False,"['24 hours a day, 7 days a week']",3355 Corridor Marketplace,Laurel,MD,20724,"['Korean', 'Chinese', 'Hindustani', 'Spanish', 'Portuguese', 'English']",171997
488,56c66be5a73e492741507112,Corridor Marketplace 3,-76.80815799999999,39.0978281,True,"['24 hours a day, 7 days a week']",3355 Corridor Marketplace,Laurel,MD,20724,"['Korean', 'Portuguese', 'Spanish', 'French', 'English']",287725
489,56c66be5a73e492741507113,Collington Plaza 1,-76.7186345,38.9374507,False,"['24 hours a day, 7 days a week']",3400 Crain Highway,Bowie,MD,20716,"['Spanish', 'Chinese', 'Portuguese', 'French', 'Hindustani', 'Korean', 'English']",522610
490,56c66be5a73e492741507114,Collington Plaza 2,-76.7186345,38.9374507,False,"['24 hours a day, 7 days a week']",3400 Crain Highway,Bowie,MD,20716,"['Chinese', 'English']",983429
491,56c66be5a73e492741507116,Broadlands 1,-77.508186,39.0250957,True,"['24 hours a day, 7 days a week']",43200 Broadlands Center Plaza,Ashburn,VA,20148,"['French', 'Hindustani', 'Korean', 'Chinese', 'English']",93421
492,56c66be5a73e492741507115,Collington Plaza 3,-76.7186345,38.9374507,True,"['24 hours a day, 7 days a week']",3400 Crain Highway,Bowie,MD,20716,"['Chinese', 'Spanish', 'Portuguese', 'French', 'Hindustani', 'English']",943528
493,56c66be5a73e492741507118,Waldorf Market Place 1,-76.91544999999999,38.6283485,False,"['24 hours a day, 7 days a week']",3068 Waldorf Market Place,Waldorf,MD,20601,"['Korean', 'Hindustani', 'English']",98953
494,56c66be5a73e492741507117,Broadlands 2,-77.508186,39.0250957,True,"['24 hours a day, 7 days a week']",43200 Broadlands Center Plaza,Ashburn,VA,20148,"['Spanish', 'Portuguese', 'Korean', 'Chinese', 'English']",203069
495,56c66be5a73e492741507119,Waldorf Market Place 2,-76.91544999999999,38.6283485,True,"['24 hours a day, 7 days a week']",3068 Waldorf Market Place,Waldorf,MD,20601,"['Chinese', 'Spanish', 'French', 'English']",398980
496,56c66be5a73e49274150711a,Waldorf Market Place 3,-76.91544999999999,38.6283485,True,"['24 hours a day, 7 days a week']",3068 Waldorf Market Place,Waldorf,MD,20601,"['French', 'Hindustani', 'Portuguese', 'Spanish', 'Korean', 'Chinese', 'English']",62498
497,56c66be5a73e49274150711b,Manassas 1,-77.5103178,38.7792751,True,"['24 hours a day, 7 days a week']",8120 Sudley Road,Manassas,VA,20109,"['Chinese', 'French', 'Portuguese', 'Korean', 'English']",32859
498,56c66be5a73e49274150711c,Manassas 2,-77.5103178,38.7792751,False,"['24 hours a day, 7 days a week']",8120 Sudley Road,Manassas,VA,20109,"['Korean', 'Hindustani', 'Chinese', 'Portuguese', 'English']",356889
499,56c66be5a73e49274150711d,Brambleton 1,-77.53509500000001,38.9849085,False,"['24 hours a day, 7 days a week']",42405 Ryan Road,Brambleton,VA,20148,"['Hindustani', 'Spanish', 'Chinese', 'Portuguese', 'English']",517869
500,56c66be5a73e49274150711f,Lansdowne 1,-77.4932936,39.0797106,True,"['24 hours a day, 7 days a week']",19301 Promenade Drive,Leesburg,VA,20176,"['Chinese', 'Korean', 'English']",548743
501,56c66be5a73e492741507120,Lansdowne 2,-77.4932936,39.0797106,False,"['24 hours a day, 7 days a week']",19301 Promenade Drive,Leesburg,VA,20176,"['Portuguese', 'French', 'Korean', 'Spanish', 'Chinese', 'English']",348332
502,56c66be5a73e492741507121,Lansdowne 3,-77.4932936,39.0797106,True,"['24 hours a day, 7 days a week']",19301 Promenade Drive,Leesburg,VA,20176,"['Korean', 'Hindustani', 'Portuguese', 'Chinese', 'English']",364875
503,56c66be5a73e49274150711e,Brambleton 2,-77.53509500000001,38.9849085,True,"['24 hours a day, 7 days a week']",42405 Ryan Road,Brambleton,VA,20148,"['Portuguese', 'Korean', 'Hindustani', 'French', 'Chinese', 'Spanish', 'English']",708289
504,56c66be5a73e492741507122,Clarksville 1,-76.9380482,39.2104587,False,"['24 hours a day, 7 days a week']",6090 Daybreak Circle,Clarksville,MD,21029,"['Portuguese', 'Korean', 'English']",568034
505,56c66be5a73e492741507124,Clarksville 3,-76.9380482,39.2104587,True,"['24 hours a day, 7 days a week']",6090 Daybreak Circle,Clarksville,MD,21029,"['Portuguese', 'Hindustani', 'Korean', 'Chinese', 'English']",99757
506,56c66be5a73e492741507123,Clarksville 2,-76.9380482,39.2104587,False,"['24 hours a day, 7 days a week']",6090 Daybreak Circle,Clarksville,MD,21029,"['Korean', 'Portuguese', 'Chinese', 'Hindustani', 'Spanish', 'French', 'English']",489923
507,56c66be5a73e492741507126,Dumfries 2,-77.33379029999999,38.5960272,False,"['24 hours a day, 7 days a week']",4425 Fortuna Center Plaza,Dumfries,VA,22025,"['Portuguese', 'French', 'Spanish', 'Chinese', 'Hindustani', 'English']",398955
508,56c66be5a73e492741507127,Minstrel Crossing 1,-76.8454275,39.1764975,False,"['24 hours a day, 7 days a week']",7085 Minstrel Way,Columbia,MD,21045,"['Spanish', 'French', 'Hindustani', 'Korean', 'English']",925609
509,56c66be5a73e492741507125,Dumfries 1,-77.33379029999999,38.5960272,False,"['24 hours a day, 7 days a week']",4425 Fortuna Center Plaza,Dumfries,VA,22025,"['French', 'Spanish', 'Chinese', 'Korean', 'English']",11215
510,56c66be5a73e492741507129,Minstrel Crossing 3,-76.8454275,39.1764975,False,"['24 hours a day, 7 days a week']",7085 Minstrel Way,Columbia,MD,21045,"['French', 'Korean', 'Portuguese', 'Spanish', 'English']",668772
511,56c66be5a73e49274150712a,Ashland Square/Manassas 1,-77.3735276,38.6130818,False,"['24 hours a day, 7 days a week']",5575 Ashland Community Square,Manassas,VA,20112,"['Hindustani', 'Portuguese', 'Spanish', 'Chinese', 'Korean', 'English']",833606
512,56c66be5a73e492741507128,Minstrel Crossing 2,-76.8454275,39.1764975,True,"['24 hours a day, 7 days a week']",7085 Minstrel Way,Columbia,MD,21045,"['Chinese', 'Hindustani', 'Portuguese', 'French', 'Korean', 'English']",177202
513,56c66be5a73e49274150712c,Micros Systems Inc 1,-76.80141499999999,39.173487,True,[''],7031 Columbia Gateway Drive,Columbia,MD,21044,"['Spanish', 'English']",782632
514,56c66be5a73e49274150712d,Potomac Station 1,-77.5284008,39.0985339,True,"['24 hours a day, 7 days a week']",607 Potomac Station Drive,Leesburg,VA,20176,"['Portuguese', 'Hindustani', 'French', 'Spanish', 'English']",522683
515,56c66be5a73e49274150712e,Potomac Station 2,-77.5284008,39.0985339,True,"['24 hours a day, 7 days a week']",607 Potomac Station Drive,Leesburg,VA,20176,['English'],302726
516,56c66be5a73e49274150712f,Potomac Station 3,-77.5284008,39.0985339,True,"['24 hours a day, 7 days a week']",607 Potomac Station Drive,Leesburg,VA,20176,['English'],758840
517,56c66be5a73e49274150712b,Ashland Square/Manassas 2,-77.3735276,38.6130818,False,"['24 hours a day, 7 days a week']",5575 Ashland Community Square,Manassas,VA,20112,"['Portuguese', 'Chinese', 'French', 'Korean', 'Hindustani', 'Spanish', 'English']",64696
518,56c66be5a73e492741507130,Waugh Chapel 1,-76.67929459999999,39.0368696,True,"['24 hours a day, 7 days a week']",2611 Brandermill Boulevard,Crofton,MD,21054,"['Chinese', 'Spanish', 'Hindustani', 'Portuguese', 'English']",576921
519,56c66be5a73e492741507131,Waugh Chapel 2,-76.67929459999999,39.0368696,False,"['24 hours a day, 7 days a week']",2611 Brandermill Boulevard,Crofton,MD,21054,"['Chinese', 'English']",172730
520,56c66be5a73e492741507132,Dobbin Center/Columbia 1,-76.81743089999999,39.1958701,True,"['24 hours a day, 7 days a week']",6445 Dobbin Road,Columbia,MD,21045,"['Portuguese', 'Chinese', 'Korean', 'French', 'Hindustani', 'Spanish', 'English']",289385
521,56c66be5a73e492741507133,Dobbin Center/Columbia 2,-76.81743089999999,39.1958701,False,"['24 hours a day, 7 days a week']",6445 Dobbin Road,Columbia,MD,21045,['English'],172752
522,56c66be5a73e492741507134,Dobbin Center/Columbia 3,-76.81743089999999,39.1958701,False,"['24 hours a day, 7 days a week']",6445 Dobbin Road,Columbia,MD,21045,"['Spanish', 'Chinese', 'Portuguese', 'Hindustani', 'Korean', 'English']",391385
523,56c66be5a73e492741507135,LaPlata Station 1,-76.9842596,38.5436566,False,"['24 hours a day, 7 days a week']",20 Shining Willow Way,LaPlata,MD,20646,"['Portuguese', 'Chinese', 'Korean', 'English']",803569
524,56c66be5a73e492741507136,LaPlata Station 2,-76.9842596,38.5436566,False,"['24 hours a day, 7 days a week']",20 Shining Willow Way,LaPlata,MD,20646,['English'],474525
525,56c66be5a73e492741507138,Gateway Overlook 2,-76.795525,39.18686599999999,True,"['24 hours a day, 7 days a week']",6690 Marie Curie Drive,Columbia,MD,21075,"['Hindustani', 'Portuguese', 'Spanish', 'French', 'Chinese', 'English']",788374
526,56c66be5a73e492741507137,Gateway Overlook 1,-76.795525,39.18686599999999,True,"['24 hours a day, 7 days a week']",6690 Marie Curie Drive,Columbia,MD,21075,"['Chinese', 'French', 'Hindustani', 'Portuguese', 'English']",658909
527,56c66be5a73e49274150713a,Braemar Village Center 1,-77.5728759,38.750011,True,"['24 hours a day, 7 days a week']",12601 Braemar Village Plaza,Bristow,VA,20136,"['French', 'Portuguese', 'Korean', 'Spanish', 'Hindustani', 'English']",938392
528,56c66be5a73e49274150713b,Braemar Village Center 2,-77.5728759,38.750011,True,"['24 hours a day, 7 days a week']",12601 Braemar Village Plaza,Bristow,VA,20136,['English'],708388
529,56c66be5a73e49274150713c,Damascus 1,-77.2093297,39.2847255,True,"['24 hours a day, 7 days a week']",26001 Ridge Road,Damascus,MD,20872,"['Hindustani', 'Portuguese', 'Korean', 'Chinese', 'English']",170487
530,56c66be5a73e49274150713d,Damascus 2,-77.2093297,39.2847255,False,"['24 hours a day, 7 days a week']",26001 Ridge Road,Damascus,MD,20872,"['Portuguese', 'Hindustani', 'French', 'Korean', 'Chinese', 'Spanish', 'English']",972626
531,56c66be5a73e49274150713e,Damascus 3,-77.2093297,39.2847255,False,"['24 hours a day, 7 days a week']",26001 Ridge Road,Damascus,MD,20872,"['Hindustani', 'Portuguese', 'Korean', 'Spanish', 'English']",316656
532,56c66be5a73e49274150713f,Virginia Gateway 1,-77.6055921,38.7970196,False,"['24 hours a day, 7 days a week']",13236 Gateway Center Drive,Gainesville,VA,20155,"['Chinese', 'Korean', 'French', 'Portuguese', 'Hindustani', 'English']",694321
533,56c66be5a73e492741507140,Virginia Gateway 2,-77.6055921,38.7970196,True,"['24 hours a day, 7 days a week']",13236 Gateway Center Drive,Gainesville,VA,20155,['English'],768532
534,56c66be5a73e492741507141,Virginia Gateway 3,-77.6055921,38.7970196,True,"['24 hours a day, 7 days a week']",13236 Gateway Center Drive,Gainesville,VA,20155,"['Spanish', 'Korean', 'French', 'Chinese', 'Portuguese', 'Hindustani', 'English']",356971
535,56c66be5a73e492741507142,Leesburg Market Street 1,-77.5554549,39.1101336,False,"['24 hours a day, 7 days a week']",401 East Market Street,Leesburg,VA,20176,['English'],68526
536,56c66be5a73e492741507143,Leesburg Market Street 2,-77.5554549,39.1101336,False,"['24 hours a day, 7 days a week']",401 East Market Street,Leesburg,VA,20176,"['Spanish', 'Portuguese', 'Chinese', 'French', 'English']",402130
537,56c66be5a73e492741507144,Leesburg Market Street 3,-77.5554549,39.1101336,False,"['24 hours a day, 7 days a week']",401 East Market Street,Leesburg,VA,20176,['English'],285746
538,56c66be5a73e492741507145,Hotel Arundel,-76.7435682,39.1520865,False,"['24 hours a day, 7 days a week']",7795 Arundel Mills Boulevard,Hanover,MD,21076,"['Hindustani', 'English']",276
539,56c66be5a73e492741507146,Dorsey Search 1,-76.8410894,39.24224359999999,True,"['24 hours a day, 7 days a week']",4745 Dorsey Hall Drive,Ellicott City,MD,21043,"['Chinese', 'Korean', 'Hindustani', 'Spanish', 'Portuguese', 'French', 'English']",354594
540,56c66be5a73e492741507147,Dorsey Search 2,-76.8410894,39.24224359999999,True,"['24 hours a day, 7 days a week']",4745 Dorsey Hall Drive,Ellicott City,MD,21043,"['Spanish', 'Hindustani', 'Korean', 'English']",849545
541,56c66be5a73e492741507139,Gateway Overlook 3,-76.795525,39.18686599999999,True,"['24 hours a day, 7 days a week']",6690 Marie Curie Drive,Columbia,MD,21075,"['Portuguese', 'Chinese', 'English']",117875
542,56c66be5a73e492741507148,Dunkirk 1,-76.6582547,38.725262,True,"['24 hours a day, 7 days a week']",10840 Town Center Boulevard,Dunkirk,MD,20754,"['Hindustani', 'Korean', 'Chinese', 'English']",727223
543,56c66be5a73e492741507149,Dunkirk 2,-76.6582547,38.725262,True,"['24 hours a day, 7 days a week']",10840 Town Center Boulevard,Dunkirk,MD,20754,"['Hindustani', 'Korean', 'English']",683638
544,56c66be5a73e49274150714a,Arundel Mills 1,-76.7210978,39.1528704,True,"['24 hours a day, 7 days a week']",7566 Ridge Road,Hanover,MD,21076,"['Hindustani', 'Chinese', 'Portuguese', 'English']",511933
545,56c66be5a73e49274150714b,Arundel Mills 2,-76.7210978,39.1528704,False,"['24 hours a day, 7 days a week']",7566 Ridge Road,Hanover,MD,21076,"['Portuguese', 'French', 'Spanish', 'English']",212869
546,56c66be5a73e49274150714c,Arundel Mills 3,-76.7210978,39.1528704,False,"['24 hours a day, 7 days a week']",7566 Ridge Road,Hanover,MD,21076,"['French', 'English']",774063
547,56c66be5a73e49274150714d,Lyndwood Square/Elkridge 1,-76.77809040000001,39.2111345,False,"['24 hours a day, 7 days a week']",6000 Marshalee Drive,Ellicott City,MD,21075,"['Korean', 'Hindustani', 'French', 'Spanish', 'Chinese', 'Portuguese', 'English']",837417
548,56c66be5a73e49274150714f,Edgewater 1,-76.56784499999999,38.934975,False,"['24 hours a day, 7 days a week']",85 Stewart Drive,Edgewater,MD,21037,"['Spanish', 'Chinese', 'Korean', 'French', 'English']",171173
549,56c66be5a73e492741507150,Edgewater 2,-76.56784499999999,38.934975,True,"['24 hours a day, 7 days a week']",85 Stewart Drive,Edgewater,MD,21037,['English'],246807
550,56c66be5a73e492741507151,Ellicott City 1,-76.8302289,39.2767764,False,"['24 hours a day, 7 days a week']",9245 Baltimore National Pike,Ellicott City,MD,21042,['English'],579499
551,56c66be5a73e492741507152,Ellicott City 2,-76.8302289,39.2767764,False,"['24 hours a day, 7 days a week']",9245 Baltimore National Pike,Ellicott City,MD,21042,"['Spanish', 'Portuguese', 'Hindustani', 'French', 'Chinese', 'Korean', 'English']",51503
552,56c66be5a73e492741507153,Madison Crescent 1,-77.6649726,38.7833112,True,"['24 hours a day, 7 days a week']",8092 Crescent Park Drive,Gainesville,VA,20155,"['Chinese', 'French', 'Portuguese', 'English']",49944
553,56c66be5a73e492741507154,Madison Crescent 2,-77.6649726,38.7833112,True,"['24 hours a day, 7 days a week']",8092 Crescent Park Drive,Gainesville,VA,20155,['English'],949487
554,56c66be5a73e492741507155,Quarterfield Crossing 1,-76.6530125,39.1507177,False,"['24 hours a day, 7 days a week']",7821 Quarterfield Park Road,Severn,MD,21144,['English'],718615
555,56c66be5a73e492741507156,Quarterfield Crossing 2,-76.6530125,39.1507177,True,"['24 hours a day, 7 days a week']",7821 Quarterfield Park Road,Severn,MD,21144,"['Spanish', 'Korean', 'Chinese', 'French', 'Portuguese', 'English']",620550
556,56c66be5a73e49274150714e,Lyndwood Square/Elkridge 2,-76.77809040000001,39.2111345,True,"['24 hours a day, 7 days a week']",6000 Marshalee Drive,Ellicott City,MD,21075,"['Korean', 'Portuguese', 'French', 'Spanish', 'English']",826914
557,56c66be5a73e492741507157,Quarterfield Crossing 3,-76.6530125,39.1507177,False,"['24 hours a day, 7 days a week']",7821 Quarterfield Park Road,Severn,MD,21144,"['Chinese', 'Hindustani', 'French', 'Spanish', 'English']",409073
558,56c66be5a73e492741507158,Amtrak - BWI Station,-76.6908006,39.1879268,False,"['24 hours a day, 7 days a week']",7 Amtrak Way,Baltimore,MD,21240,"['Hindustani', 'Portuguese', 'English']",39338
559,56c66be5a73e492741507159,Urbana 1,-77.3523152,39.3283672,False,"['24 hours a day, 7 days a week']",9122 Hinks Lane,Frederick,MD,21704,"['Hindustani', 'Portuguese', 'French', 'Korean', 'Chinese', 'English']",169761
560,56c66be5a73e49274150715a,Urbana 2,-77.3523152,39.3283672,True,"['24 hours a day, 7 days a week']",9122 Hinks Lane,Frederick,MD,21704,"['Hindustani', 'Korean', 'Portuguese', 'Spanish', 'French', 'English']",621483
561,56c66be5a73e49274150715b,Annapolis Harbour 1,-76.5430071,38.9736144,True,"['24 hours a day, 7 days a week']",2580 Solomon's Island Road,Annapolis,MD,21401,"['Hindustani', 'French', 'Portuguese', 'Chinese', 'Spanish', 'English']",897578
562,56c66be5a73e49274150715d,Mt. Airy 1,-77.1612463,39.3640536,False,"['24 hours a day, 7 days a week']",402 East Ridgeville Boulevard,Mt. Airy,MD,21771,['English'],638614
563,56c66be5a73e49274150715c,Annapolis Harbour Center 1,-76.5451751,38.9756401,True,"['24 hours a day, 7 days a week']",2512-A Solomons Island Road,Annapolis,MD,21401,"['Portuguese', 'Chinese', 'Korean', 'Spanish', 'English']",969079
564,56c66be5a73e49274150715e,Mt. Airy 2,-77.1612463,39.3640536,True,"['24 hours a day, 7 days a week']",402 East Ridgeville Boulevard,Mt. Airy,MD,21771,"['French', 'Portuguese', 'Spanish', 'English']",20988
565,56c66be5a73e49274150715f,Annapolis Mall 4,-76.54557179999999,38.9894637,True,"['Sun 11 AM - 7 PM', 'Mon 10 AM - 9:30 PM', 'Tue 10 AM - 9:30 PM', 'Wed 10 AM - 9:30 PM', 'Thu 10 AM - 9:30 PM', 'Fri 10 AM - 9:30 PM', 'Sat 10 AM - 9:30 PM']",2002 Annapolis Mall,Annapolis,MD,21401,"['Spanish', 'English']",328079
566,56c66be5a73e492741507160,Annapolis Mall 5,-76.54557179999999,38.9894637,False,"['Sun 11 AM - 7 PM', 'Mon 10 AM - 9:30 PM', 'Tue 10 AM - 9:30 PM', 'Wed 10 AM - 9:30 PM', 'Thu 10 AM - 9:30 PM', 'Fri 10 AM - 9:30 PM', 'Sat 10 AM - 9:30 PM']",2002 Annapolis Mall,Annapolis,MD,21401,"['Spanish', 'English']",714517
567,56c66be5a73e492741507162,Annapolis Mall Food Court,-76.54557179999999,38.9894637,False,"['Sun 11 AM - 7 PM', 'Mon 10 AM - 9 PM', 'Tue 10 AM - 9 PM', 'Wed 10 AM - 9 PM', 'Thu 10 AM - 9 PM', 'Fri 10 AM - 9 PM', 'Sat 10 AM - 9 PM']",2002 Annapolis Mall,Annapolis,MD,21401,"['Chinese', 'French', 'English']",100475
568,56c66be5a73e492741507161,Annapolis Mall 1,-76.54557179999999,38.9894637,False,"['24 hours a day, 7 days a week']",2002 Annapolis Mall,Annapolis,MD,21401,['English'],745470
569,56c66be5a73e492741507164,West Street 2,-76.53863059999999,38.98320229999999,False,"['24 hours a day, 7 days a week']",2063 West Street,Annapolis,MD,21401,"['Portuguese', 'English']",980152
570,56c66be5a73e492741507163,West Street 1,-76.53863059999999,38.98320229999999,False,"['24 hours a day, 7 days a week']",2063 West Street,Annapolis,MD,21401,"['Spanish', 'Hindustani', 'French', 'Chinese', 'Korean', 'English']",474773
571,56c66be5a73e492741507165,West Street 3,-76.53863059999999,38.98320229999999,True,"['24 hours a day, 7 days a week']",2063 West Street,Annapolis,MD,21401,"['Portuguese', 'French', 'Chinese', 'Korean', 'English']",346604
572,56c66be5a73e492741507166,Glen Burnie 1,-76.60040409999999,39.1381741,False,"['24 hours a day, 7 days a week']",7937 Ritchie Highway,Glen Burnie,MD,21061,"['Spanish', 'Portuguese', 'English']",878167
573,56c66be5a73e492741507167,Glen Burnie 2,-76.60040409999999,39.1381741,True,"['24 hours a day, 7 days a week']",7937 Ritchie Highway,Glen Burnie,MD,21061,"['French', 'Hindustani', 'Portuguese', 'Korean', 'English']",505996
574,56c66be5a73e492741507168,Village Greens 1,-76.5199344,38.9688398,False,"['24 hours a day, 7 days a week']",501 South Cherry Grove Avenue,Annapolis,MD,21401,"['Spanish', 'French', 'Chinese', 'Korean', 'Portuguese', 'Hindustani', 'English']",286782
575,56c66be5a73e492741507169,Village Greens 2,-76.5199344,38.9688398,True,"['24 hours a day, 7 days a week']",501 South Cherry Grove Avenue,Annapolis,MD,21401,"['Hindustani', 'Portuguese', 'French', 'Korean', 'Spanish', 'Chinese', 'English']",452585
576,56c66be5a73e49274150716b,Severna Park 2,-76.549261,39.080289,False,"['24 hours a day, 7 days a week']",500 Ritchie Highway,Severna Park,MD,21146,"['Hindustani', 'Chinese', 'Portuguese', 'French', 'Korean', 'English']",907434
577,56c66be5a73e49274150716c,Stafford Market Place 1,-77.4098561,38.4685384,False,"['24 hours a day, 7 days a week']",1025 Stafford Market Place,Stafford,VA,22556,"['Korean', 'Spanish', 'Chinese', 'Hindustani', 'Portuguese', 'English']",882232
578,56c66be5a73e49274150716d,Stafford Market Place 2,-77.4098561,38.4685384,True,"['24 hours a day, 7 days a week']",1025 Stafford Market Place,Stafford,VA,22556,"['Spanish', 'Chinese', 'Korean', 'Hindustani', 'French', 'Portuguese', 'English']",405920
579,56c66be5a73e49274150716e,Purcellville 1,-77.6983838,39.1359434,True,"['24 hours a day, 7 days a week']",1030 East Main Street,Purcellville,VA,20132,"['Hindustani', 'English']",928476
580,56c66be5a73e49274150716a,Severna Park 1,-76.549261,39.080289,True,"['24 hours a day, 7 days a week']",500 Ritchie Highway,Severna Park,MD,21146,"['French', 'Hindustani', 'Portuguese', 'English']",655143
581,56c66be5a73e49274150716f,Purcellville 2,-77.6983838,39.1359434,True,"['24 hours a day, 7 days a week']",1030 East Main Street,Purcellville,VA,20132,"['Hindustani', 'Spanish', 'French', 'Portuguese', 'Chinese', 'English']",768604
582,56c66be5a73e492741507170,Kingsbrook 1,-77.4232348,39.3801138,True,"['24 hours a day, 7 days a week']",5312 New Design Road,Frederick,MD,21703,"['Korean', 'Chinese', 'Hindustani', 'Spanish', 'French', 'Portuguese', 'English']",286158
583,56c66be5a73e492741507171,Kingsbrook 2,-77.4232348,39.3801138,False,"['24 hours a day, 7 days a week']",5312 New Design Road,Frederick,MD,21703,"['Chinese', 'Hindustani', 'Portuguese', 'Korean', 'Spanish', 'English']",88444
584,56c66be5a73e492741507172,Francis Scott Key Mall 1,-77.40572089999999,39.3825995,True,"['Sun 11 AM - 6 PM', 'Mon 10 AM - 9 PM', 'Tue 10 AM - 9 PM', 'Wed 10 AM - 9 PM', 'Thu 10 AM - 9 PM', 'Fri 10 AM - 9 PM', 'Sat 10 AM - 9 PM']",5500 Buckystown Pike,Frederick,MD,21703,"['Korean', 'Spanish', 'Hindustani', 'English']",985925
585,56c66be5a73e492741507173,Francis Scott Key Mall 2,-77.40572089999999,39.3825995,True,"['Sun 11 AM - 6 PM', 'Mon 10 AM - 9 PM', 'Tue 10 AM - 9 PM', 'Wed 10 AM - 9 PM', 'Thu 10 AM - 9 PM', 'Fri 10 AM - 9 PM', 'Sat 10 AM - 9 PM']",5500 Buckystown Pike,Frederick,MD,21703,"['Korean', 'English']",470678
586,56c66be5a73e492741507175,Mount Clare Junction,-76.63750809999999,39.2842683,True,"['24 hours a day, 7 days a week']",1241 West Pratt Street,Baltimore,MD,21223,"['Spanish', 'Korean', 'French', 'Portuguese', 'English']",973399
587,56c66be5a73e492741507174,Mount Clare Junction,-76.63750809999999,39.2842683,True,"['24 hours a day, 7 days a week']",1241 West Pratt Street,Baltimore,MD,21223,"['Hindustani', 'Portuguese', 'Chinese', 'Korean', 'French', 'English']",767675
588,56c66be5a73e492741507176,Urbana Pike 1,-77.4129605,39.3955162,False,"['24 hours a day, 7 days a week']",5903 Buckeystown Road,Frederick,MD,21704,"['Korean', 'French', 'Portuguese', 'Hindustani', 'Spanish', 'English']",43410
589,56c66be5a73e492741507177,Urbana Pike 2,-77.4129605,39.3955162,True,"['24 hours a day, 7 days a week']",5903 Buckeystown Road,Frederick,MD,21704,"['French', 'Korean', 'Hindustani', 'English']",1686
590,56c66be5a73e492741507178,Urbana Pike 3,-77.4129605,39.3955162,True,"['24 hours a day, 7 days a week']",5903 Buckeystown Road,Frederick,MD,21704,"['Korean', 'Spanish', 'Portuguese', 'Chinese', 'Hindustani', 'French', 'English']",284872
591,56c66be5a73e49274150717a,Northrock S/C - Warrenton 2,-77.7938736,38.7276336,True,"['24 hours a day, 7 days a week']",521 Fletcher Drive,Warrenton,VA,20186,['English'],965130
592,56c66be5a73e492741507179,Northrock S/C - Warrenton 1,-77.7938736,38.7276336,False,"['24 hours a day, 7 days a week']",521 Fletcher Drive,Warrenton,VA,20186,"['Hindustani', 'Portuguese', 'Spanish', 'Chinese', 'Korean', 'French', 'English']",910909
593,56c66be5a73e49274150717b,Mondawmin Mall,-76.6548485,39.318954,True,"['24 hours a day, 7 days a week']",2301 Liberty Heights Avenue #2725,Baltimore,MD,21215,"['Chinese', 'Hindustani', 'Portuguese', 'Spanish', 'Korean', 'French', 'English']",314864
594,56c66be5a73e49274150717c,Calvert &amp; Baltimore 1,-76.6125252,39.2895119,False,"['24 hours a day, 7 days a week']",135 East Baltimore Street,Baltimore,MD,21202,"['Portuguese', 'Spanish', 'Hindustani', 'Chinese', 'French', 'Korean', 'English']",73202
595,56c66be5a73e49274150717d,St. Paul Place,-76.6143369,39.29127039999999,True,"['24 hours a day, 7 days a week']",200 St. Paul Place,Baltimore,MD,21202,"['Portuguese', 'Hindustani', 'Chinese', 'Korean', 'English']",173384
596,56c66be5a73e49274150717e,Reisterstown Square 2,-76.7029996,39.3565224,False,"['24 hours a day, 7 days a week']",6504 Reisterstown Road,Baltimore,MD,21215,['English'],396077
597,56c66be5a73e49274150717f,Reisterstown Square 1,-76.7029996,39.3565224,False,"['24 hours a day, 7 days a week']",6504 Reisterstown Road,Baltimore,MD,21215,"['Korean', 'Chinese', 'English']",579096
598,56c66be5a73e492741507180,Amtrak - Penn Station 1,-76.6156621,39.3073578,True,"['24 hours a day, 7 days a week']",1515 North Charles Street,Baltimore,MD,21201,"['French', 'Chinese', 'Spanish', 'English']",460576
599,56c66be5a73e492741507181,Frederick 1,-77.445082,39.417858,False,"['24 hours a day, 7 days a week']",1009 West Patrick Street,Frederick,MD,21702,"['French', 'Korean', 'Portuguese', 'Chinese', 'Spanish', 'English']",495487
600,56c66be5a73e492741507182,Frederick 2,-77.445082,39.417858,False,"['24 hours a day, 7 days a week']",1009 West Patrick Street,Frederick,MD,21702,"['French', 'Spanish', 'English']",671132
601,56c66be5a73e492741507184,Frederick Town Center 1,-77.4179362,39.4317766,False,"['24 hours a day, 7 days a week']",1305 7th Street,Frederick,MD,21702,"['Korean', 'English']",534723
602,56c66be5a73e492741507183,Frederick 3,-77.445082,39.417858,True,"['24 hours a day, 7 days a week']",1009 West Patrick Street,Frederick,MD,21702,"['Chinese', 'Hindustani', 'Portuguese', 'Spanish', 'French', 'Korean', 'English']",949399
603,56c66be5a73e492741507185,Frederick Town Center 2,-77.4179362,39.4317766,True,"['24 hours a day, 7 days a week']",1305 7th Street,Frederick,MD,21702,['English'],555476
604,56c66be5a73e492741507186,Shoppes @ Monocacy 1,-77.38318389999999,39.4490663,True,"['24 hours a day, 7 days a week']",1701 Kingfisher Drive,Frederick,MD,21701,"['French', 'Chinese', 'English']",165997
605,56c66be5a73e492741507187,Shoppes @ Monocacy 2,-77.38318389999999,39.4490663,False,"['24 hours a day, 7 days a week']",1701 Kingfisher Drive,Frederick,MD,21701,"['Hindustani', 'English']",293906
606,56c66be5a73e492741507188,Dundalk Plaza,-76.5043889,39.2794111,True,"['24 hours a day, 7 days a week']",1309 Merritt Boulevard,Dundalk,MD,21222,"['Portuguese', 'Spanish', 'French', 'Korean', 'English']",987167
607,56c66be5a73e492741507189,Dundalk Plaza,-76.5043889,39.2794111,False,"['24 hours a day, 7 days a week']",1309 Merritt Boulevard,Dundalk,MD,21222,"['Hindustani', 'French', 'Spanish', 'Korean', 'English']",536314
608,56c66be5a73e49274150718a,Kent Island 1,-76.2704801,38.9738576,False,"['24 hours a day, 7 days a week']",119 South Piney Road,Chester,MD,21619,"['Chinese', 'Hindustani', 'Spanish', 'Portuguese', 'English']",907510
609,56c66be5a73e49274150718b,Kent Island 2,-76.2704801,38.9738576,False,"['24 hours a day, 7 days a week']",119 South Piney Road,Chester,MD,21619,"['Spanish', 'Korean', 'French', 'English']",483578
610,56c66be5a73e49274150718c,Central Park 1,-77.512051,38.307875,True,"['24 hours a day, 7 days a week']",1890 Carl D Silver Boulevard,Fredericksburg,VA,22401,"['Chinese', 'Korean', 'English']",437684
611,56c66be5a73e49274150718d,Central Park 2,-77.512051,38.307875,False,"['24 hours a day, 7 days a week']",1890 Carl D Silver Boulevard,Fredericksburg,VA,22401,"['Chinese', 'Portuguese', 'French', 'English']",397761
612,56c66be5a73e49274150718e,Westminster Crossing 1,-76.9881046,39.5845506,False,"['24 hours a day, 7 days a week']",202 Clifton Boulevard,Westminster,MD,21157,['English'],110058
613,56c66be5a73e492741507190,Harrison Crossing 1,-77.5673458,38.29193190000001,True,"['24 hours a day, 7 days a week']",5651 Plank Road,Fredericksburg,VA,22407,"['French', 'Portuguese', 'Chinese', 'English']",500860
614,56c66be5a73e49274150718f,Westminster Crossing 2,-76.9881046,39.5845506,True,"['24 hours a day, 7 days a week']",202 Clifton Boulevard,Westminster,MD,21157,"['French', 'Korean', 'Spanish', 'Portuguese', 'English']",791340
615,56c66be5a73e492741507191,Harrison Crossing 2,-77.5673458,38.29193190000001,True,"['24 hours a day, 7 days a week']",5651 Plank Road,Fredericksburg,VA,22407,['English'],994499
616,56c66be5a73e492741507193,Massaponax 2,-77.5046085,38.2211308,False,"['24 hours a day, 7 days a week']",9801 Jefferson Davis Highway,Fredericksburg,VA,22407,"['Portuguese', 'Spanish', 'Korean', 'Hindustani', 'English']",682263
617,56c66be5a73e492741507192,Massaponax 1,-77.5046085,38.2211308,False,"['24 hours a day, 7 days a week']",9801 Jefferson Davis Highway,Fredericksburg,VA,22407,"['Spanish', 'English']",355287
618,56c66be5a73e492741507194,South Plaza 1,-76.5106685,38.2985423,True,"['24 hours a day, 7 days a week']",45210 Worth Avenue,California,MD,20619,"['Korean', 'Chinese', 'English']",520309
619,56c66be5a73e492741507195,South Plaza 2,-76.5106685,38.2985423,True,"['24 hours a day, 7 days a week']",45210 Worth Avenue,California,MD,20619,['English'],886053
620,56c66be5a73e492741507196,Culpeper Colonnade 1,-77.969124,38.48377310000001,True,"['24 hours a day, 7 days a week']",15237 Creativity Drive,Culpepper,VA,22701,"['Hindustani', 'French', 'Chinese', 'English']",319243
621,56c66be5a73e492741507198,Waterside Village/Easton 1,-76.084896,38.7825011,False,"['24 hours a day, 7 days a week']",28575 Marlboro Avenue,Easton,MD,21601,"['Portuguese', 'French', 'Chinese', 'English']",255669
622,56c66be5a73e492741507199,Waterside Village/Easton 2,-76.084896,38.7825011,False,"['24 hours a day, 7 days a week']",28575 Marlboro Avenue,Easton,MD,21601,['English'],897452
623,56c66be5a73e492741507197,Culpeper Colonnade 2,-77.969124,38.48377310000001,True,"['24 hours a day, 7 days a week']",15237 Creativity Drive,Culpepper,VA,22701,"['Korean', 'Hindustani', 'English']",174917
624,56c66be5a73e49274150719a,Waterside Village/Easton 3,-76.084896,38.7825011,True,"['24 hours a day, 7 days a week']",28575 Marlboro Avenue,Easton,MD,21601,"['Korean', 'Hindustani', 'English']",936928
625,56c66be5a73e49274150719b,Hagerstown Premium Outlets 1,-77.7343722,39.6069966,True,"['Sun 10 AM - 7 PM', 'Mon 10 AM - 9 PM', 'Tue 10 AM - 9 PM', 'Wed 10 AM - 9 PM', 'Thu 10 AM - 9 PM', 'Fri 10 AM - 9 PM', 'Sat 10 AM - 9 PM']",495 Premium Outlets Boulevard,Hagerstown,MD,21740,"['Hindustani', 'Spanish', 'English']",789672
626,56c66be5a73e49274150719c,Centre @ Antietam/Hagerstown 1,-77.7019183,39.6332388,False,"['24 hours a day, 7 days a week']",950 Dual Highway,Hagerstown,MD,21740,"['Korean', 'English']",990339
627,56c66be5a73e49274150719d,Centre @ Antietam/Hagerstown 2,-77.7019183,39.6332388,False,"['24 hours a day, 7 days a week']",950 Dual Highway,Hagerstown,MD,21740,"['Spanish', 'English']",78380
628,56c66be5a73e49274150719e,Centre @ Antietam/Hagerstown 3,-77.7019183,39.6332388,True,"['24 hours a day, 7 days a week']",950 Dual Highway,Hagerstown,MD,21740,"['Portuguese', 'English']",378405
629,56c66be5a73e49274150719f,Valley Mall,-77.77081249999999,39.6246921,False,"['Sun 11 AM - 6 PM', 'Mon 10 AM - 9 PM', 'Tue 10 AM - 9 PM', 'Wed 10 AM - 9 PM', 'Thu 10 AM - 9 PM', 'Fri 10 AM - 9 PM', 'Sat 10 AM - 9 PM']",17301 Valley Mall Road,Hagerstown,MD,21740,"['Spanish', 'French', 'English']",118132
630,56c66be5a73e4927415071a0,Stone House Square/Hagerstown 1,-77.700267,39.66396599999999,True,"['24 hours a day, 7 days a week']",12806 Shank Farm Way,Hagerstown,MD,21742,"['Chinese', 'Portuguese', 'English']",864596
631,56c66be5a73e4927415071a1,Stone House Square/Hagerstown 2,-77.700267,39.66396599999999,False,"['24 hours a day, 7 days a week']",12806 Shank Farm Way,Hagerstown,MD,21742,"['French', 'Spanish', 'Korean', 'Chinese', 'Hindustani', 'English']",44157
632,56c66be5a73e4927415071a2,Stone House Square/Hagerstown 3,-77.700267,39.66396599999999,True,"['24 hours a day, 7 days a week']",12806 Shank Farm Way,Hagerstown,MD,21742,"['Hindustani', 'Korean', 'Spanish', 'English']",693619
